Postcode,lat,long
IM1 1AA,,0.00000
IM1 1AD,,0.00000
IM1 1AE,,0.00000
IM1 1AF,,0.00000
IM1 1AG,,0.00000
IM1 1AH,,0.00000
IM1 1AJ,,0.00000
IM1 1AL,,0.00000
IM1 1AN,,0.00000
IM1 1AP,,0.00000
IM1 1AQ,,0.00000
IM1 1AR,,0.00000
IM1 1AS,,0.00000
IM1 1AT,,0.00000
IM1 1AU,,0.00000
IM1 1AW,,0.00000
IM1 1AX,,0.00000
IM1 1AY,,0.00000
IM1 1AZ,,0.00000
IM1 1BA,,0.00000
IM1 1BB,,0.00000
IM1 1BD,,0.00000
IM1 1BE,,0.00000
IM1 1BF,,0.00000
IM1 1BG,,0.00000
IM1 1BH,,0.00000
IM1 1BJ,,0.00000
IM1 1BL,,0.00000
IM1 1BN,,0.00000
IM1 1BP,,0.00000
IM1 1BQ,,0.00000
IM1 1BR,,0.00000
IM1 1BS,,0.00000
IM1 1BT,,0.00000
IM1 1BU,,0.00000
IM1 1BW,,0.00000
IM1 1BX,,0.00000
IM1 1BY,,0.00000
IM1 1EA,,0.00000
IM1 1EB,,0.00000
IM1 1ED,,0.00000
IM1 1EE,,0.00000
IM1 1EF,,0.00000
IM1 1EG,,0.00000
IM1 1EH,,0.00000
IM1 1EJ,,0.00000
IM1 1EL,,0.00000
IM1 1EN,,0.00000
IM1 1EP,,0.00000
IM1 1EQ,,0.00000
IM1 1ER,,0.00000
IM1 1ES,,0.00000
IM1 1ET,,0.00000
IM1 1EU,,0.00000
IM1 1EW,,0.00000
IM1 1EX,,0.00000
IM1 1JA,,0.00000
IM1 1JB,,0.00000
IM1 1JD,,0.00000
IM1 1JE,,0.00000
IM1 1LA,,0.00000
IM1 1LB,,0.00000
IM1 1LD,,0.00000
IM1 1LE,,0.00000
IM1 1LF,,0.00000
IM1 1LG,,0.00000
IM1 1LH,,0.00000
IM1 1LJ,,0.00000
IM1 1LL,,0.00000
IM1 1LN,,0.00000
IM1 1LP,,0.00000
IM1 1LQ,,0.00000
IM1 1LR,,0.00000
IM1 1LS,,0.00000
IM1 1LT,,0.00000
IM1 1LW,,0.00000
IM1 1PB,,0.00000
IM1 1PD,,0.00000
IM1 1PE,,0.00000
IM1 1PF,,0.00000
IM1 1PG,,0.00000
IM1 1PH,,0.00000
IM1 1PJ,,0.00000
IM1 1PL,,0.00000
IM1 1PN,,0.00000
IM1 1PP,,0.00000
IM1 1PQ,,0.00000
IM1 1PR,,0.00000
IM1 1PS,,0.00000
IM1 1PT,,0.00000
IM1 1PU,,0.00000
IM1 1PX,,0.00000
IM1 1PY,,0.00000
IM1 1QA,,0.00000
IM1 1QB,,0.00000
IM1 1QD,,0.00000
IM1 1QE,,0.00000
IM1 1QF,,0.00000
IM1 1QG,,0.00000
IM1 1QH,,0.00000
IM1 1QJ,,0.00000
IM1 1QL,,0.00000
IM1 1QP,,0.00000
IM1 1QQ,,0.00000
IM1 1QR,,0.00000
IM1 1QS,,0.00000
IM1 1QT,,0.00000
IM1 1QW,,0.00000
IM1 1RD,,0.00000
IM1 1RE,,0.00000
IM1 1RL,,0.00000
IM1 1RS,,0.00000
IM1 1SA,,0.00000
IM1 1SB,,0.00000
IM1 1SQ,,0.00000
IM1 1TA,,0.00000
IM1 1TB,,0.00000
IM1 1UB,,0.00000
IM1 2AB,,0.00000
IM1 2AD,,0.00000
IM1 2AF,,0.00000
IM1 2AG,,0.00000
IM1 2AH,,0.00000
IM1 2AJ,,0.00000
IM1 2AL,,0.00000
IM1 2AN,,0.00000
IM1 2AP,,0.00000
IM1 2AQ,,0.00000
IM1 2AR,,0.00000
IM1 2AS,,0.00000
IM1 2AU,,0.00000
IM1 2AW,,0.00000
IM1 2AX,,0.00000
IM1 2AY,,0.00000
IM1 2AZ,,0.00000
IM1 2BA,,0.00000
IM1 2BB,,0.00000
IM1 2BD,,0.00000
IM1 2BE,,0.00000
IM1 2BF,,0.00000
IM1 2BG,,0.00000
IM1 2BH,,0.00000
IM1 2BJ,,0.00000
IM1 2BL,,0.00000
IM1 2BQ,,0.00000
IM1 2BS,,0.00000
IM1 2BT,,0.00000
IM1 2BU,,0.00000
IM1 2BW,,0.00000
IM1 2BX,,0.00000
IM1 2BY,,0.00000
IM1 2BZ,,0.00000
IM1 2DA,,0.00000
IM1 2DB,,0.00000
IM1 2DD,,0.00000
IM1 2EA,,0.00000
IM1 2EB,,0.00000
IM1 2ED,,0.00000
IM1 2EE,,0.00000
IM1 2EF,,0.00000
IM1 2EG,,0.00000
IM1 2EH,,0.00000
IM1 2EJ,,0.00000
IM1 2EL,,0.00000
IM1 2EN,,0.00000
IM1 2EP,,0.00000
IM1 2EQ,,0.00000
IM1 2ER,,0.00000
IM1 2ES,,0.00000
IM1 2ET,,0.00000
IM1 2EU,,0.00000
IM1 2EW,,0.00000
IM1 2EX,,0.00000
IM1 2EY,,0.00000
IM1 2EZ,,0.00000
IM1 2HA,,0.00000
IM1 2HB,,0.00000
IM1 2HD,,0.00000
IM1 2HE,,0.00000
IM1 2HF,,0.00000
IM1 2HG,,0.00000
IM1 2HH,,0.00000
IM1 2HJ,,0.00000
IM1 2HN,,0.00000
IM1 2HP,,0.00000
IM1 2HQ,,0.00000
IM1 2HR,,0.00000
IM1 2HW,,0.00000
IM1 2LA,,0.00000
IM1 2LB,,0.00000
IM1 2LD,,0.00000
IM1 2LE,,0.00000
IM1 2LF,,0.00000
IM1 2LG,,0.00000
IM1 2LH,,0.00000
IM1 2LJ,,0.00000
IM1 2LL,,0.00000
IM1 2LN,,0.00000
IM1 2LP,,0.00000
IM1 2LQ,,0.00000
IM1 2LR,,0.00000
IM1 2LS,,0.00000
IM1 2LT,,0.00000
IM1 2LU,,0.00000
IM1 2LW,,0.00000
IM1 2LX,,0.00000
IM1 2LY,,0.00000
IM1 2LZ,,0.00000
IM1 2NA,,0.00000
IM1 2NB,,0.00000
IM1 2PA,,0.00000
IM1 2PB,,0.00000
IM1 2PD,,0.00000
IM1 2PE,,0.00000
IM1 2PF,,0.00000
IM1 2PG,,0.00000
IM1 2PH,,0.00000
IM1 2PJ,,0.00000
IM1 2PL,,0.00000
IM1 2PN,,0.00000
IM1 2PP,,0.00000
IM1 2PQ,,0.00000
IM1 2PR,,0.00000
IM1 2PS,,0.00000
IM1 2PT,,0.00000
IM1 2PU,,0.00000
IM1 2PW,,0.00000
IM1 2PX,,0.00000
IM1 2QA,,0.00000
IM1 2QD,,0.00000
IM1 2QE,,0.00000
IM1 2QF,,0.00000
IM1 2QG,,0.00000
IM1 2QH,,0.00000
IM1 2QJ,,0.00000
IM1 2QL,,0.00000
IM1 2QN,,0.00000
IM1 2RA,,0.00000
IM1 2RD,,0.00000
IM1 2RE,,0.00000
IM1 2RF,,0.00000
IM1 2RG,,0.00000
IM1 2RH,,0.00000
IM1 2RJ,,0.00000
IM1 2RL,,0.00000
IM1 2RN,,0.00000
IM1 2RP,,0.00000
IM1 2RQ,,0.00000
IM1 2RR,,0.00000
IM1 2RS,,0.00000
IM1 2RT,,0.00000
IM1 2RU,,0.00000
IM1 2RW,,0.00000
IM1 2RX,,0.00000
IM1 2RY,,0.00000
IM1 2RZ,,0.00000
IM1 2SA,,0.00000
IM1 2SB,,0.00000
IM1 2SD,,0.00000
IM1 2SE,,0.00000
IM1 2SF,,0.00000
IM1 2SG,,0.00000
IM1 2SH,,0.00000
IM1 2SJ,,0.00000
IM1 2SL,,0.00000
IM1 2SN,,0.00000
IM1 2SP,,0.00000
IM1 2SQ,,0.00000
IM1 2SR,,0.00000
IM1 2UB,,0.00000
IM1 3AB,,0.00000
IM1 3AD,,0.00000
IM1 3AE,,0.00000
IM1 3AF,,0.00000
IM1 3AG,,0.00000
IM1 3AH,,0.00000
IM1 3AJ,,0.00000
IM1 3AL,,0.00000
IM1 3AN,,0.00000
IM1 3AP,,0.00000
IM1 3AQ,,0.00000
IM1 3AR,,0.00000
IM1 3AS,,0.00000
IM1 3AW,,0.00000
IM1 3DA,,0.00000
IM1 3DB,,0.00000
IM1 3DD,,0.00000
IM1 3DE,,0.00000
IM1 3DF,,0.00000
IM1 3DG,,0.00000
IM1 3DH,,0.00000
IM1 3DJ,,0.00000
IM1 3DL,,0.00000
IM1 3DN,,0.00000
IM1 3DP,,0.00000
IM1 3DQ,,0.00000
IM1 3DR,,0.00000
IM1 3DS,,0.00000
IM1 3DT,,0.00000
IM1 3DU,,0.00000
IM1 3DW,,0.00000
IM1 3DX,,0.00000
IM1 3DY,,0.00000
IM1 3DZ,,0.00000
IM1 3EA,,0.00000
IM1 3EB,,0.00000
IM1 3ED,,0.00000
IM1 3EE,,0.00000
IM1 3EF,,0.00000
IM1 3EG,,0.00000
IM1 3EH,,0.00000
IM1 3EJ,,0.00000
IM1 3EL,,0.00000
IM1 3EN,,0.00000
IM1 3EP,,0.00000
IM1 3EQ,,0.00000
IM1 3ER,,0.00000
IM1 3ES,,0.00000
IM1 3ET,,0.00000
IM1 3EU,,0.00000
IM1 3EW,,0.00000
IM1 3EX,,0.00000
IM1 3EY,,0.00000
IM1 3EZ,,0.00000
IM1 3FH,,0.00000
IM1 3HA,,0.00000
IM1 3HD,,0.00000
IM1 3HE,,0.00000
IM1 3HF,,0.00000
IM1 3HG,,0.00000
IM1 3HH,,0.00000
IM1 3HQ,,0.00000
IM1 3JA,,0.00000
IM1 3JB,,0.00000
IM1 3JD,,0.00000
IM1 3JE,,0.00000
IM1 3JF,,0.00000
IM1 3JG,,0.00000
IM1 3JH,,0.00000
IM1 3JJ,,0.00000
IM1 3JL,,0.00000
IM1 3JN,,0.00000
IM1 3JP,,0.00000
IM1 3JQ,,0.00000
IM1 3JR,,0.00000
IM1 3JS,,0.00000
IM1 3JT,,0.00000
IM1 3JU,,0.00000
IM1 3JW,,0.00000
IM1 3JX,,0.00000
IM1 3JY,,0.00000
IM1 3JZ,,0.00000
IM1 3LA,,0.00000
IM1 3LB,,0.00000
IM1 3LD,,0.00000
IM1 3LE,,0.00000
IM1 3LF,,0.00000
IM1 3LG,,0.00000
IM1 3LH,,0.00000
IM1 3LJ,,0.00000
IM1 3LL,,0.00000
IM1 3LN,,0.00000
IM1 3LP,,0.00000
IM1 3LQ,,0.00000
IM1 3LR,,0.00000
IM1 3LS,,0.00000
IM1 3LT,,0.00000
IM1 3LU,,0.00000
IM1 3LW,,0.00000
IM1 3LX,,0.00000
IM1 3LY,,0.00000
IM1 3LZ,,0.00000
IM1 3NA,,0.00000
IM1 3NB,,0.00000
IM1 3ND,,0.00000
IM1 3PA,,0.00000
IM1 3PB,,0.00000
IM1 3PD,,0.00000
IM1 3PE,,0.00000
IM1 3PF,,0.00000
IM1 3PG,,0.00000
IM1 3PH,,0.00000
IM1 3PL,,0.00000
IM1 3PN,,0.00000
IM1 3PP,,0.00000
IM1 3PQ,,0.00000
IM1 3PR,,0.00000
IM1 3PS,,0.00000
IM1 3PU,,0.00000
IM1 3PW,,0.00000
IM1 3PX,,0.00000
IM1 3PY,,0.00000
IM1 3PZ,,0.00000
IM1 3QA,,0.00000
IM1 3QB,,0.00000
IM1 3RS,,0.00000
IM1 3TX,,0.00000
IM1 4AB,,0.00000
IM1 4AD,,0.00000
IM1 4AE,,0.00000
IM1 4AF,,0.00000
IM1 4AG,,0.00000
IM1 4AH,,0.00000
IM1 4AJ,,0.00000
IM1 4AL,,0.00000
IM1 4AN,,0.00000
IM1 4AP,,0.00000
IM1 4AQ,,0.00000
IM1 4AR,,0.00000
IM1 4AS,,0.00000
IM1 4AT,,0.00000
IM1 4AU,,0.00000
IM1 4AW,,0.00000
IM1 4AX,,0.00000
IM1 4AY,,0.00000
IM1 4AZ,,0.00000
IM1 4BA,,0.00000
IM1 4BB,,0.00000
IM1 4BD,,0.00000
IM1 4BE,,0.00000
IM1 4BF,,0.00000
IM1 4BG,,0.00000
IM1 4BH,,0.00000
IM1 4BJ,,0.00000
IM1 4BL,,0.00000
IM1 4BN,,0.00000
IM1 4BP,,0.00000
IM1 4BQ,,0.00000
IM1 4BR,,0.00000
IM1 4BS,,0.00000
IM1 4BT,,0.00000
IM1 4BU,,0.00000
IM1 4BW,,0.00000
IM1 4BX,,0.00000
IM1 4BY,,0.00000
IM1 4BZ,,0.00000
IM1 4DA,,0.00000
IM1 4DB,,0.00000
IM1 4DD,,0.00000
IM1 4DE,,0.00000
IM1 4DF,,0.00000
IM1 4EA,,0.00000
IM1 4EB,,0.00000
IM1 4ED,,0.00000
IM1 4EE,,0.00000
IM1 4EF,,0.00000
IM1 4EG,,0.00000
IM1 4EH,,0.00000
IM1 4EJ,,0.00000
IM1 4EL,,0.00000
IM1 4EN,,0.00000
IM1 4EP,,0.00000
IM1 4EQ,,0.00000
IM1 4ER,,0.00000
IM1 4ES,,0.00000
IM1 4ET,,0.00000
IM1 4EU,,0.00000
IM1 4EW,,0.00000
IM1 4EX,,0.00000
IM1 4EY,,0.00000
IM1 4EZ,,0.00000
IM1 4HA,,0.00000
IM1 4HB,,0.00000
IM1 4HD,,0.00000
IM1 4HE,,0.00000
IM1 4HF,,0.00000
IM1 4HG,,0.00000
IM1 4HH,,0.00000
IM1 4HJ,,0.00000
IM1 4HL,,0.00000
IM1 4HN,,0.00000
IM1 4HP,,0.00000
IM1 4HQ,,0.00000
IM1 4HR,,0.00000
IM1 4HS,,0.00000
IM1 4HT,,0.00000
IM1 4HU,,0.00000
IM1 4HW,,0.00000
IM1 4HX,,0.00000
IM1 4HY,,0.00000
IM1 4HZ,,0.00000
IM1 4JA,,0.00000
IM1 4JB,,0.00000
IM1 4JD,,0.00000
IM1 4JE,,0.00000
IM1 4LA,,0.00000
IM1 4LB,,0.00000
IM1 4LD,,0.00000
IM1 4LE,,0.00000
IM1 4LF,,0.00000
IM1 4LG,,0.00000
IM1 4LH,,0.00000
IM1 4LJ,,0.00000
IM1 4LL,,0.00000
IM1 4LN,,0.00000
IM1 4LP,,0.00000
IM1 4LQ,,0.00000
IM1 4LR,,0.00000
IM1 4LS,,0.00000
IM1 4LT,,0.00000
IM1 4LU,,0.00000
IM1 4LW,,0.00000
IM1 4LX,,0.00000
IM1 4LY,,0.00000
IM1 4LZ,,0.00000
IM1 4NA,,0.00000
IM1 4NB,,0.00000
IM1 4ND,,0.00000
IM1 4NE,,0.00000
IM1 4NF,,0.00000
IM1 4NG,,0.00000
IM1 4NH,,0.00000
IM1 4NJ,,0.00000
IM1 4NL,,0.00000
IM1 4NN,,0.00000
IM1 4NP,,0.00000
IM1 4NQ,,0.00000
IM1 4NR,,0.00000
IM1 4NS,,0.00000
IM1 4NT,,0.00000
IM1 4NU,,0.00000
IM1 4NW,,0.00000
IM1 4NX,,0.00000
IM1 4NY,,0.00000
IM1 4NZ,,0.00000
IM1 4QA,,0.00000
IM1 4QB,,0.00000
IM1 4QD,,0.00000
IM1 4QE,,0.00000
IM1 4QF,,0.00000
IM1 4QG,,0.00000
IM1 4RE,,0.00000
IM1 4ZZ,,0.00000
IM1 5AB,,0.00000
IM1 5AD,,0.00000
IM1 5AE,,0.00000
IM1 5AF,,0.00000
IM1 5AG,,0.00000
IM1 5AH,,0.00000
IM1 5AJ,,0.00000
IM1 5AL,,0.00000
IM1 5AN,,0.00000
IM1 5AP,,0.00000
IM1 5AQ,,0.00000
IM1 5AR,,0.00000
IM1 5AS,,0.00000
IM1 5AT,,0.00000
IM1 5AU,,0.00000
IM1 5AW,,0.00000
IM1 5AX,,0.00000
IM1 5AY,,0.00000
IM1 5AZ,,0.00000
IM1 5BA,,0.00000
IM1 5BB,,0.00000
IM1 5BD,,0.00000
IM1 5BE,,0.00000
IM1 5BF,,0.00000
IM1 5BG,,0.00000
IM1 5BH,,0.00000
IM1 5BJ,,0.00000
IM1 5BL,,0.00000
IM1 5BN,,0.00000
IM1 5BP,,0.00000
IM1 5BQ,,0.00000
IM1 5BR,,0.00000
IM1 5BS,,0.00000
IM1 5BT,,0.00000
IM1 5BU,,0.00000
IM1 5BW,,0.00000
IM1 5BX,,0.00000
IM1 5BY,,0.00000
IM1 5BZ,,0.00000
IM1 5EA,,0.00000
IM1 5EB,,0.00000
IM1 5ED,,0.00000
IM1 5EG,,0.00000
IM1 5EH,,0.00000
IM1 5EJ,,0.00000
IM1 5EL,,0.00000
IM1 5EN,,0.00000
IM1 5EP,,0.00000
IM1 5EQ,,0.00000
IM1 5EW,,0.00000
IM1 5EZ,,0.00000
IM1 5PA,,0.00000
IM1 5PD,,0.00000
IM1 5PT,,0.00000
IM1 5PZ,,0.00000
IM2 1AA,,0.00000
IM2 1AB,,0.00000
IM2 1AD,,0.00000
IM2 1AE,,0.00000
IM2 1AF,,0.00000
IM2 1AG,,0.00000
IM2 1AH,,0.00000
IM2 1AJ,,0.00000
IM2 1AL,,0.00000
IM2 1AN,,0.00000
IM2 1AP,,0.00000
IM2 1AQ,,0.00000
IM2 1AS,,0.00000
IM2 1AT,,0.00000
IM2 1AU,,0.00000
IM2 1AW,,0.00000
IM2 1AX,,0.00000
IM2 1AY,,0.00000
IM2 1AZ,,0.00000
IM2 1BA,,0.00000
IM2 1BB,,0.00000
IM2 1BD,,0.00000
IM2 1BE,,0.00000
IM2 1BF,,0.00000
IM2 1BG,,0.00000
IM2 1BH,,0.00000
IM2 1BJ,,0.00000
IM2 1BL,,0.00000
IM2 1BN,,0.00000
IM2 1BP,,0.00000
IM2 1BQ,,0.00000
IM2 1BR,,0.00000
IM2 1BS,,0.00000
IM2 1BT,,0.00000
IM2 1BU,,0.00000
IM2 1BW,,0.00000
IM2 1BX,,0.00000
IM2 1BY,,0.00000
IM2 1BZ,,0.00000
IM2 1DA,,0.00000
IM2 1DB,,0.00000
IM2 1DD,,0.00000
IM2 1DE,,0.00000
IM2 1DF,,0.00000
IM2 1DG,,0.00000
IM2 1DH,,0.00000
IM2 1DJ,,0.00000
IM2 1DL,,0.00000
IM2 1DN,,0.00000
IM2 1DP,,0.00000
IM2 1DQ,,0.00000
IM2 1DR,,0.00000
IM2 1DS,,0.00000
IM2 1DU,,0.00000
IM2 1DW,,0.00000
IM2 1DX,,0.00000
IM2 1DY,,0.00000
IM2 1DZ,,0.00000
IM2 1EA,,0.00000
IM2 1EB,,0.00000
IM2 1ED,,0.00000
IM2 1EE,,0.00000
IM2 1EF,,0.00000
IM2 1EG,,0.00000
IM2 1EH,,0.00000
IM2 1EJ,,0.00000
IM2 1EL,,0.00000
IM2 1EN,,0.00000
IM2 1EP,,0.00000
IM2 1EQ,,0.00000
IM2 1ER,,0.00000
IM2 1ES,,0.00000
IM2 1ET,,0.00000
IM2 1EU,,0.00000
IM2 1EW,,0.00000
IM2 1EX,,0.00000
IM2 1EY,,0.00000
IM2 1EZ,,0.00000
IM2 1HA,,0.00000
IM2 1HB,,0.00000
IM2 1HD,,0.00000
IM2 1HE,,0.00000
IM2 1HF,,0.00000
IM2 1HG,,0.00000
IM2 1HH,,0.00000
IM2 1HJ,,0.00000
IM2 1HL,,0.00000
IM2 1HN,,0.00000
IM2 1HP,,0.00000
IM2 1HQ,,0.00000
IM2 1HR,,0.00000
IM2 1HS,,0.00000
IM2 1HT,,0.00000
IM2 1HU,,0.00000
IM2 1HW,,0.00000
IM2 1HX,,0.00000
IM2 1HY,,0.00000
IM2 1HZ,,0.00000
IM2 1JA,,0.00000
IM2 1JB,,0.00000
IM2 1JD,,0.00000
IM2 1JE,,0.00000
IM2 1JF,,0.00000
IM2 1JG,,0.00000
IM2 1JH,,0.00000
IM2 1JJ,,0.00000
IM2 1JL,,0.00000
IM2 1JN,,0.00000
IM2 1JQ,,0.00000
IM2 1JS,,0.00000
IM2 1JT,,0.00000
IM2 1JU,,0.00000
IM2 1JW,,0.00000
IM2 1LA,,0.00000
IM2 1LF,,0.00000
IM2 1NA,,0.00000
IM2 1NB,,0.00000
IM2 1ND,,0.00000
IM2 1NE,,0.00000
IM2 1NF,,0.00000
IM2 1NG,,0.00000
IM2 1NH,,0.00000
IM2 1NJ,,0.00000
IM2 1NL,,0.00000
IM2 1NN,,0.00000
IM2 1NP,,0.00000
IM2 1NQ,,0.00000
IM2 1NR,,0.00000
IM2 1NS,,0.00000
IM2 1NT,,0.00000
IM2 1NU,,0.00000
IM2 1NW,,0.00000
IM2 1NX,,0.00000
IM2 1NY,,0.00000
IM2 1NZ,,0.00000
IM2 1PA,,0.00000
IM2 1PB,,0.00000
IM2 1PD,,0.00000
IM2 1PE,,0.00000
IM2 1PF,,0.00000
IM2 1PG,,0.00000
IM2 1PH,,0.00000
IM2 1PJ,,0.00000
IM2 1PL,,0.00000
IM2 1PN,,0.00000
IM2 1PP,,0.00000
IM2 1PQ,,0.00000
IM2 1PW,,0.00000
IM2 1PX,,0.00000
IM2 1PY,,0.00000
IM2 1QA,,0.00000
IM2 1QB,,0.00000
IM2 1QD,,0.00000
IM2 1QE,,0.00000
IM2 1QF,,0.00000
IM2 1QG,,0.00000
IM2 1QH,,0.00000
IM2 1QJ,,0.00000
IM2 1QL,,0.00000
IM2 1QN,,0.00000
IM2 1QP,,0.00000
IM2 1QQ,,0.00000
IM2 1QR,,0.00000
IM2 1QS,,0.00000
IM2 1QT,,0.00000
IM2 1QU,,0.00000
IM2 1QW,,0.00000
IM2 1QX,,0.00000
IM2 1QY,,0.00000
IM2 1RB,,0.00000
IM2 2AA,,0.00000
IM2 2AB,,0.00000
IM2 2AD,,0.00000
IM2 2AE,,0.00000
IM2 2AF,,0.00000
IM2 2AG,,0.00000
IM2 2AH,,0.00000
IM2 2AJ,,0.00000
IM2 2AL,,0.00000
IM2 2AN,,0.00000
IM2 2AP,,0.00000
IM2 2AQ,,0.00000
IM2 2AR,,0.00000
IM2 2AS,,0.00000
IM2 2AT,,0.00000
IM2 2AU,,0.00000
IM2 2AW,,0.00000
IM2 2AX,,0.00000
IM2 2AY,,0.00000
IM2 2AZ,,0.00000
IM2 2BA,,0.00000
IM2 2BB,,0.00000
IM2 2BD,,0.00000
IM2 2BE,,0.00000
IM2 2BF,,0.00000
IM2 2BG,,0.00000
IM2 2BH,,0.00000
IM2 2BJ,,0.00000
IM2 2BL,,0.00000
IM2 2BN,,0.00000
IM2 2BP,,0.00000
IM2 2BQ,,0.00000
IM2 2BR,,0.00000
IM2 2BS,,0.00000
IM2 2BT,,0.00000
IM2 2BU,,0.00000
IM2 2BW,,0.00000
IM2 2BX,,0.00000
IM2 2BY,,0.00000
IM2 2BZ,,0.00000
IM2 2DA,,0.00000
IM2 2DB,,0.00000
IM2 2DD,,0.00000
IM2 2DE,,0.00000
IM2 2DF,,0.00000
IM2 2DG,,0.00000
IM2 2DH,,0.00000
IM2 2DJ,,0.00000
IM2 2DL,,0.00000
IM2 2DN,,0.00000
IM2 2DP,,0.00000
IM2 2DQ,,0.00000
IM2 2EA,,0.00000
IM2 2EB,,0.00000
IM2 2ED,,0.00000
IM2 2EE,,0.00000
IM2 2EF,,0.00000
IM2 2EG,,0.00000
IM2 2EH,,0.00000
IM2 2EJ,,0.00000
IM2 2EL,,0.00000
IM2 2EN,,0.00000
IM2 2EP,,0.00000
IM2 2EQ,,0.00000
IM2 2ER,,0.00000
IM2 2ES,,0.00000
IM2 2ET,,0.00000
IM2 2EU,,0.00000
IM2 2EW,,0.00000
IM2 2EX,,0.00000
IM2 2EY,,0.00000
IM2 2EZ,,0.00000
IM2 2FA,,0.00000
IM2 2FB,,0.00000
IM2 2FD,,0.00000
IM2 2FE,,0.00000
IM2 2FF,,0.00000
IM2 2FG,,0.00000
IM2 2HA,,0.00000
IM2 2HB,,0.00000
IM2 2HD,,0.00000
IM2 2HE,,0.00000
IM2 2HF,,0.00000
IM2 2HG,,0.00000
IM2 2HH,,0.00000
IM2 2HJ,,0.00000
IM2 2HL,,0.00000
IM2 2HN,,0.00000
IM2 2HP,,0.00000
IM2 2HQ,,0.00000
IM2 2HR,,0.00000
IM2 2HS,,0.00000
IM2 2HT,,0.00000
IM2 2HU,,0.00000
IM2 2HW,,0.00000
IM2 2HX,,0.00000
IM2 2LA,,0.00000
IM2 2LB,,0.00000
IM2 2LD,,0.00000
IM2 2LE,,0.00000
IM2 2LF,,0.00000
IM2 2LG,,0.00000
IM2 2LH,,0.00000
IM2 2LJ,,0.00000
IM2 2LL,,0.00000
IM2 2LN,,0.00000
IM2 2LP,,0.00000
IM2 2LQ,,0.00000
IM2 2LR,,0.00000
IM2 2LS,,0.00000
IM2 2LT,,0.00000
IM2 2LU,,0.00000
IM2 2LW,,0.00000
IM2 2LX,,0.00000
IM2 2LY,,0.00000
IM2 2LZ,,0.00000
IM2 2NA,,0.00000
IM2 2NB,,0.00000
IM2 2ND,,0.00000
IM2 2NE,,0.00000
IM2 2NF,,0.00000
IM2 2NG,,0.00000
IM2 2NH,,0.00000
IM2 2NJ,,0.00000
IM2 2NL,,0.00000
IM2 2NN,,0.00000
IM2 2NP,,0.00000
IM2 2NQ,,0.00000
IM2 2NR,,0.00000
IM2 2NS,,0.00000
IM2 2NT,,0.00000
IM2 2NU,,0.00000
IM2 2NW,,0.00000
IM2 2NX,,0.00000
IM2 2NY,,0.00000
IM2 2NZ,,0.00000
IM2 2PA,,0.00000
IM2 2PB,,0.00000
IM2 2PD,,0.00000
IM2 2PE,,0.00000
IM2 2PF,,0.00000
IM2 2PG,,0.00000
IM2 2QA,,0.00000
IM2 2QB,,0.00000
IM2 2QD,,0.00000
IM2 2QE,,0.00000
IM2 2QF,,0.00000
IM2 2QG,,0.00000
IM2 2QH,,0.00000
IM2 2QJ,,0.00000
IM2 2QQ,,0.00000
IM2 2QR,,0.00000
IM2 2QS,,0.00000
IM2 2QT,,0.00000
IM2 2QU,,0.00000
IM2 2QW,,0.00000
IM2 2QX,,0.00000
IM2 2QY,,0.00000
IM2 2QZ,,0.00000
IM2 2RA,,0.00000
IM2 2RB,,0.00000
IM2 2RD,,0.00000
IM2 2RE,,0.00000
IM2 2SA,,0.00000
IM2 2SE,,0.00000
IM2 2SP,,0.00000
IM2 2SR,,0.00000
IM2 2ST,,0.00000
IM2 3AB,,0.00000
IM2 3AD,,0.00000
IM2 3AE,,0.00000
IM2 3AF,,0.00000
IM2 3AG,,0.00000
IM2 3AH,,0.00000
IM2 3AJ,,0.00000
IM2 3AL,,0.00000
IM2 3AN,,0.00000
IM2 3AP,,0.00000
IM2 3AQ,,0.00000
IM2 3AR,,0.00000
IM2 3AS,,0.00000
IM2 3AT,,0.00000
IM2 3AU,,0.00000
IM2 3AW,,0.00000
IM2 3AX,,0.00000
IM2 3AY,,0.00000
IM2 3AZ,,0.00000
IM2 3BA,,0.00000
IM2 3BB,,0.00000
IM2 3BD,,0.00000
IM2 3BE,,0.00000
IM2 3BF,,0.00000
IM2 3BG,,0.00000
IM2 3BH,,0.00000
IM2 3BJ,,0.00000
IM2 3BL,,0.00000
IM2 3BN,,0.00000
IM2 3BP,,0.00000
IM2 3BQ,,0.00000
IM2 3BR,,0.00000
IM2 3BS,,0.00000
IM2 3BT,,0.00000
IM2 3BU,,0.00000
IM2 3BW,,0.00000
IM2 3BX,,0.00000
IM2 3BY,,0.00000
IM2 3BZ,,0.00000
IM2 3EA,,0.00000
IM2 3EB,,0.00000
IM2 3ED,,0.00000
IM2 3EE,,0.00000
IM2 3EF,,0.00000
IM2 3EG,,0.00000
IM2 3EH,,0.00000
IM2 3EJ,,0.00000
IM2 3EL,,0.00000
IM2 3EN,,0.00000
IM2 3EP,,0.00000
IM2 3EQ,,0.00000
IM2 3ER,,0.00000
IM2 3ES,,0.00000
IM2 3ET,,0.00000
IM2 3EU,,0.00000
IM2 3EW,,0.00000
IM2 3EX,,0.00000
IM2 3EY,,0.00000
IM2 3EZ,,0.00000
IM2 3FA,,0.00000
IM2 3GA,,0.00000
IM2 3HA,,0.00000
IM2 3HB,,0.00000
IM2 3HD,,0.00000
IM2 3HE,,0.00000
IM2 3HF,,0.00000
IM2 3HG,,0.00000
IM2 3HH,,0.00000
IM2 3HJ,,0.00000
IM2 3HL,,0.00000
IM2 3HN,,0.00000
IM2 3HP,,0.00000
IM2 3HQ,,0.00000
IM2 3HR,,0.00000
IM2 3HS,,0.00000
IM2 3HT,,0.00000
IM2 3HU,,0.00000
IM2 3HW,,0.00000
IM2 3HX,,0.00000
IM2 3HY,,0.00000
IM2 3HZ,,0.00000
IM2 3JA,,0.00000
IM2 3JB,,0.00000
IM2 3LA,,0.00000
IM2 3LB,,0.00000
IM2 3LD,,0.00000
IM2 3LE,,0.00000
IM2 3LF,,0.00000
IM2 3LG,,0.00000
IM2 3LH,,0.00000
IM2 3LJ,,0.00000
IM2 3LL,,0.00000
IM2 3LN,,0.00000
IM2 3LP,,0.00000
IM2 3LQ,,0.00000
IM2 3LR,,0.00000
IM2 3LS,,0.00000
IM2 3LT,,0.00000
IM2 3LU,,0.00000
IM2 3LW,,0.00000
IM2 3LX,,0.00000
IM2 3LY,,0.00000
IM2 3LZ,,0.00000
IM2 3NA,,0.00000
IM2 3NB,,0.00000
IM2 3ND,,0.00000
IM2 3NE,,0.00000
IM2 3NF,,0.00000
IM2 3NG,,0.00000
IM2 3NH,,0.00000
IM2 3NJ,,0.00000
IM2 3NL,,0.00000
IM2 3NN,,0.00000
IM2 3NP,,0.00000
IM2 3NQ,,0.00000
IM2 3NR,,0.00000
IM2 3NS,,0.00000
IM2 3NT,,0.00000
IM2 3NW,,0.00000
IM2 3QA,,0.00000
IM2 3QB,,0.00000
IM2 3QD,,0.00000
IM2 3QE,,0.00000
IM2 3QF,,0.00000
IM2 3QG,,0.00000
IM2 3QH,,0.00000
IM2 3QJ,,0.00000
IM2 3QL,,0.00000
IM2 3QN,,0.00000
IM2 3QP,,0.00000
IM2 3QQ,,0.00000
IM2 3QR,,0.00000
IM2 3QS,,0.00000
IM2 3QT,,0.00000
IM2 3QU,,0.00000
IM2 3QW,,0.00000
IM2 3QX,,0.00000
IM2 3QY,,0.00000
IM2 3QZ,,0.00000
IM2 3RA,,0.00000
IM2 3RB,,0.00000
IM2 3RD,,0.00000
IM2 3RE,,0.00000
IM2 3RF,,0.00000
IM2 3RG,,0.00000
IM2 3RH,,0.00000
IM2 3RJ,,0.00000
IM2 3RL,,0.00000
IM2 3RN,,0.00000
IM2 3RQ,,0.00000
IM2 3TA,,0.00000
IM2 3TD,,0.00000
IM2 4AA,,0.00000
IM2 4AB,,0.00000
IM2 4AD,,0.00000
IM2 4AE,,0.00000
IM2 4AF,,0.00000
IM2 4AG,,0.00000
IM2 4AH,,0.00000
IM2 4AJ,,0.00000
IM2 4AL,,0.00000
IM2 4AN,,0.00000
IM2 4AP,,0.00000
IM2 4AQ,,0.00000
IM2 4AR,,0.00000
IM2 4AS,,0.00000
IM2 4AT,,0.00000
IM2 4AU,,0.00000
IM2 4AW,,0.00000
IM2 4AX,,0.00000
IM2 4AY,,0.00000
IM2 4AZ,,0.00000
IM2 4BA,,0.00000
IM2 4BB,,0.00000
IM2 4BD,,0.00000
IM2 4BE,,0.00000
IM2 4BF,,0.00000
IM2 4BG,,0.00000
IM2 4BH,,0.00000
IM2 4BJ,,0.00000
IM2 4BL,,0.00000
IM2 4BN,,0.00000
IM2 4BP,,0.00000
IM2 4BQ,,0.00000
IM2 4BR,,0.00000
IM2 4BS,,0.00000
IM2 4BT,,0.00000
IM2 4BU,,0.00000
IM2 4BW,,0.00000
IM2 4BX,,0.00000
IM2 4BY,,0.00000
IM2 4DF,,0.00000
IM2 4EA,,0.00000
IM2 4EB,,0.00000
IM2 4ED,,0.00000
IM2 4EE,,0.00000
IM2 4EF,,0.00000
IM2 4EG,,0.00000
IM2 4EH,,0.00000
IM2 4EL,,0.00000
IM2 4EN,,0.00000
IM2 4EP,,0.00000
IM2 4EQ,,0.00000
IM2 4ER,,0.00000
IM2 4ES,,0.00000
IM2 4ET,,0.00000
IM2 4EU,,0.00000
IM2 4EW,,0.00000
IM2 4EX,,0.00000
IM2 4EY,,0.00000
IM2 4EZ,,0.00000
IM2 4HA,,0.00000
IM2 4HB,,0.00000
IM2 4HD,,0.00000
IM2 4HE,,0.00000
IM2 4HF,,0.00000
IM2 4HG,,0.00000
IM2 4HH,,0.00000
IM2 4HJ,,0.00000
IM2 4HL,,0.00000
IM2 4HN,,0.00000
IM2 4HP,,0.00000
IM2 4HQ,,0.00000
IM2 4HR,,0.00000
IM2 4HS,,0.00000
IM2 4HT,,0.00000
IM2 4HU,,0.00000
IM2 4HW,,0.00000
IM2 4HX,,0.00000
IM2 4HY,,0.00000
IM2 4HZ,,0.00000
IM2 4JA,,0.00000
IM2 4JB,,0.00000
IM2 4JD,,0.00000
IM2 4JL,,0.00000
IM2 4LA,,0.00000
IM2 4LB,,0.00000
IM2 4LD,,0.00000
IM2 4LE,,0.00000
IM2 4LF,,0.00000
IM2 4LG,,0.00000
IM2 4LH,,0.00000
IM2 4LJ,,0.00000
IM2 4LL,,0.00000
IM2 4LN,,0.00000
IM2 4LP,,0.00000
IM2 4LQ,,0.00000
IM2 4LR,,0.00000
IM2 4LS,,0.00000
IM2 4LT,,0.00000
IM2 4LU,,0.00000
IM2 4LW,,0.00000
IM2 4LX,,0.00000
IM2 4LY,,0.00000
IM2 4LZ,,0.00000
IM2 4NA,,0.00000
IM2 4NB,,0.00000
IM2 4ND,,0.00000
IM2 4NE,,0.00000
IM2 4NF,,0.00000
IM2 4NG,,0.00000
IM2 4NH,,0.00000
IM2 4NJ,,0.00000
IM2 4NL,,0.00000
IM2 4NN,,0.00000
IM2 4NP,,0.00000
IM2 4NQ,,0.00000
IM2 4NR,,0.00000
IM2 4NS,,0.00000
IM2 4NT,,0.00000
IM2 4NW,,0.00000
IM2 4NX,,0.00000
IM2 4NY,,0.00000
IM2 4NZ,,0.00000
IM2 4PA,,0.00000
IM2 4PB,,0.00000
IM2 4PD,,0.00000
IM2 4PE,,0.00000
IM2 4PF,,0.00000
IM2 4PG,,0.00000
IM2 4PH,,0.00000
IM2 4PJ,,0.00000
IM2 4PL,,0.00000
IM2 4PN,,0.00000
IM2 4PQ,,0.00000
IM2 4RA,,0.00000
IM2 4RB,,0.00000
IM2 4RD,,0.00000
IM2 4RE,,0.00000
IM2 4RF,,0.00000
IM2 4RG,,0.00000
IM2 4RH,,0.00000
IM2 4RJ,,0.00000
IM2 4RL,,0.00000
IM2 4RN,,0.00000
IM2 4RP,,0.00000
IM2 4RQ,,0.00000
IM2 4RW,,0.00000
IM2 4RX,,0.00000
IM2 4TB,,0.00000
IM2 4WD,,0.00000
IM2 5AB,,0.00000
IM2 5AD,,0.00000
IM2 5AE,,0.00000
IM2 5AF,,0.00000
IM2 5AG,,0.00000
IM2 5AH,,0.00000
IM2 5AJ,,0.00000
IM2 5AL,,0.00000
IM2 5AN,,0.00000
IM2 5AP,,0.00000
IM2 5AQ,,0.00000
IM2 5AR,,0.00000
IM2 5AS,,0.00000
IM2 5AT,,0.00000
IM2 5AU,,0.00000
IM2 5AW,,0.00000
IM2 5AX,,0.00000
IM2 5AY,,0.00000
IM2 5AZ,,0.00000
IM2 5BA,,0.00000
IM2 5BB,,0.00000
IM2 5BD,,0.00000
IM2 5BE,,0.00000
IM2 5BF,,0.00000
IM2 5BG,,0.00000
IM2 5BH,,0.00000
IM2 5BJ,,0.00000
IM2 5BL,,0.00000
IM2 5BN,,0.00000
IM2 5BP,,0.00000
IM2 5BQ,,0.00000
IM2 5BR,,0.00000
IM2 5BS,,0.00000
IM2 5BT,,0.00000
IM2 5BW,,0.00000
IM2 5DA,,0.00000
IM2 5DB,,0.00000
IM2 5DD,,0.00000
IM2 5DE,,0.00000
IM2 5DF,,0.00000
IM2 5DG,,0.00000
IM2 5DH,,0.00000
IM2 5EA,,0.00000
IM2 5EB,,0.00000
IM2 5ED,,0.00000
IM2 5EE,,0.00000
IM2 5EF,,0.00000
IM2 5EG,,0.00000
IM2 5EH,,0.00000
IM2 5EJ,,0.00000
IM2 5EL,,0.00000
IM2 5EN,,0.00000
IM2 5EP,,0.00000
IM2 5EQ,,0.00000
IM2 5ER,,0.00000
IM2 5ES,,0.00000
IM2 5ET,,0.00000
IM2 5EU,,0.00000
IM2 5EW,,0.00000
IM2 5EX,,0.00000
IM2 5EY,,0.00000
IM2 5EZ,,0.00000
IM2 5FB,,0.00000
IM2 5HA,,0.00000
IM2 5HB,,0.00000
IM2 5HD,,0.00000
IM2 5HE,,0.00000
IM2 5HF,,0.00000
IM2 5HJ,,0.00000
IM2 5HN,,0.00000
IM2 5HP,,0.00000
IM2 5HR,,0.00000
IM2 5HS,,0.00000
IM2 5HT,,0.00000
IM2 5HU,,0.00000
IM2 5HW,,0.00000
IM2 5HX,,0.00000
IM2 5HY,,0.00000
IM2 5HZ,,0.00000
IM2 5LA,,0.00000
IM2 5LB,,0.00000
IM2 5LD,,0.00000
IM2 5LE,,0.00000
IM2 5LF,,0.00000
IM2 5LG,,0.00000
IM2 5LH,,0.00000
IM2 5LJ,,0.00000
IM2 5LL,,0.00000
IM2 5LN,,0.00000
IM2 5LP,,0.00000
IM2 5LQ,,0.00000
IM2 5LR,,0.00000
IM2 5LS,,0.00000
IM2 5LT,,0.00000
IM2 5LU,,0.00000
IM2 5LW,,0.00000
IM2 5LX,,0.00000
IM2 5LY,,0.00000
IM2 5LZ,,0.00000
IM2 5NA,,0.00000
IM2 5NB,,0.00000
IM2 5ND,,0.00000
IM2 5NE,,0.00000
IM2 5NF,,0.00000
IM2 5NG,,0.00000
IM2 5NH,,0.00000
IM2 5NJ,,0.00000
IM2 5NL,,0.00000
IM2 5NN,,0.00000
IM2 5NP,,0.00000
IM2 5NQ,,0.00000
IM2 5NR,,0.00000
IM2 5NS,,0.00000
IM2 5NT,,0.00000
IM2 5NU,,0.00000
IM2 5NW,,0.00000
IM2 5PA,,0.00000
IM2 5PB,,0.00000
IM2 5PD,,0.00000
IM2 5PE,,0.00000
IM2 5PL,,0.00000
IM2 5PN,,0.00000
IM2 5PP,,0.00000
IM2 5PQ,,0.00000
IM2 5PR,,0.00000
IM2 5PS,,0.00000
IM2 5PT,,0.00000
IM2 5PW,,0.00000
IM2 5RA,,0.00000
IM2 5RB,,0.00000
IM2 6AB,,0.00000
IM2 6AD,,0.00000
IM2 6AE,,0.00000
IM2 6AF,,0.00000
IM2 6AG,,0.00000
IM2 6AH,,0.00000
IM2 6AJ,,0.00000
IM2 6AL,,0.00000
IM2 6AN,,0.00000
IM2 6AP,,0.00000
IM2 6AQ,,0.00000
IM2 6AR,,0.00000
IM2 6AS,,0.00000
IM2 6AT,,0.00000
IM2 6AU,,0.00000
IM2 6AW,,0.00000
IM2 6AX,,0.00000
IM2 6AY,,0.00000
IM2 6AZ,,0.00000
IM2 6BA,,0.00000
IM2 6BB,,0.00000
IM2 6BD,,0.00000
IM2 6BE,,0.00000
IM2 6BF,,0.00000
IM2 6BG,,0.00000
IM2 6BH,,0.00000
IM2 6BJ,,0.00000
IM2 6BN,,0.00000
IM2 6DA,,0.00000
IM2 6DB,,0.00000
IM2 6DD,,0.00000
IM2 6DE,,0.00000
IM2 6DF,,0.00000
IM2 6DG,,0.00000
IM2 6EA,,0.00000
IM2 6EB,,0.00000
IM2 6ED,,0.00000
IM2 6EE,,0.00000
IM2 6EF,,0.00000
IM2 6EG,,0.00000
IM2 6EH,,0.00000
IM2 6EJ,,0.00000
IM2 6EL,,0.00000
IM2 6EN,,0.00000
IM2 6EP,,0.00000
IM2 6EQ,,0.00000
IM2 6ER,,0.00000
IM2 6ES,,0.00000
IM2 6ET,,0.00000
IM2 6EU,,0.00000
IM2 6EW,,0.00000
IM2 6EX,,0.00000
IM2 6EY,,0.00000
IM2 6EZ,,0.00000
IM2 6HA,,0.00000
IM2 6HB,,0.00000
IM2 6HD,,0.00000
IM2 6HE,,0.00000
IM2 6HF,,0.00000
IM2 6HG,,0.00000
IM2 6HH,,0.00000
IM2 6HJ,,0.00000
IM2 6HL,,0.00000
IM2 6HN,,0.00000
IM2 6HP,,0.00000
IM2 6HQ,,0.00000
IM2 6HR,,0.00000
IM2 6HS,,0.00000
IM2 6HT,,0.00000
IM2 6HU,,0.00000
IM2 6HW,,0.00000
IM2 6HY,,0.00000
IM2 6HZ,,0.00000
IM2 6JA,,0.00000
IM2 6JB,,0.00000
IM2 6JD,,0.00000
IM2 6JE,,0.00000
IM2 6JF,,0.00000
IM2 6JG,,0.00000
IM2 6JH,,0.00000
IM2 6JZ,,0.00000
IM2 6LA,,0.00000
IM2 6LB,,0.00000
IM2 6LD,,0.00000
IM2 6LE,,0.00000
IM2 6LF,,0.00000
IM2 6LG,,0.00000
IM2 6LH,,0.00000
IM2 6LJ,,0.00000
IM2 6LL,,0.00000
IM2 6LN,,0.00000
IM2 6LP,,0.00000
IM2 6LQ,,0.00000
IM2 6LR,,0.00000
IM2 6LS,,0.00000
IM2 6LT,,0.00000
IM2 6LU,,0.00000
IM2 6LW,,0.00000
IM2 6LX,,0.00000
IM2 6LY,,0.00000
IM2 6LZ,,0.00000
IM2 6NA,,0.00000
IM2 6NB,,0.00000
IM2 6ND,,0.00000
IM2 6NE,,0.00000
IM2 6NF,,0.00000
IM2 6NG,,0.00000
IM2 6NH,,0.00000
IM2 6NJ,,0.00000
IM2 6NL,,0.00000
IM2 6NN,,0.00000
IM2 6NP,,0.00000
IM2 6NQ,,0.00000
IM2 6NR,,0.00000
IM2 6NS,,0.00000
IM2 6NT,,0.00000
IM2 6NU,,0.00000
IM2 6NW,,0.00000
IM2 6NX,,0.00000
IM2 6NY,,0.00000
IM2 6NZ,,0.00000
IM2 6PA,,0.00000
IM2 6PB,,0.00000
IM2 6PD,,0.00000
IM2 6PE,,0.00000
IM2 6PF,,0.00000
IM2 6PG,,0.00000
IM2 6PH,,0.00000
IM2 6PJ,,0.00000
IM2 6PL,,0.00000
IM2 6PN,,0.00000
IM2 6PP,,0.00000
IM2 6PQ,,0.00000
IM2 6PR,,0.00000
IM2 6PS,,0.00000
IM2 6PT,,0.00000
IM2 6RA,,0.00000
IM2 6RB,,0.00000
IM2 6RD,,0.00000
IM2 6RE,,0.00000
IM2 7AB,,0.00000
IM2 7AD,,0.00000
IM2 7AE,,0.00000
IM2 7AF,,0.00000
IM2 7AG,,0.00000
IM2 7AH,,0.00000
IM2 7AJ,,0.00000
IM2 7AL,,0.00000
IM2 7AN,,0.00000
IM2 7AP,,0.00000
IM2 7AQ,,0.00000
IM2 7AR,,0.00000
IM2 7AS,,0.00000
IM2 7AT,,0.00000
IM2 7AU,,0.00000
IM2 7AW,,0.00000
IM2 7BA,,0.00000
IM2 7BB,,0.00000
IM2 7BD,,0.00000
IM2 7BE,,0.00000
IM2 7BF,,0.00000
IM2 7BG,,0.00000
IM2 7BH,,0.00000
IM2 7BJ,,0.00000
IM2 7BL,,0.00000
IM2 7BN,,0.00000
IM2 7BP,,0.00000
IM2 7BQ,,0.00000
IM2 7BR,,0.00000
IM2 7BS,,0.00000
IM2 7BT,,0.00000
IM2 7BU,,0.00000
IM2 7BW,,0.00000
IM2 7BX,,0.00000
IM2 7BY,,0.00000
IM2 7BZ,,0.00000
IM2 7DA,,0.00000
IM2 7DB,,0.00000
IM2 7DD,,0.00000
IM2 7DE,,0.00000
IM2 7DF,,0.00000
IM2 7DG,,0.00000
IM2 7DH,,0.00000
IM2 7DJ,,0.00000
IM2 7DL,,0.00000
IM2 7DN,,0.00000
IM2 7DP,,0.00000
IM2 7DQ,,0.00000
IM2 7DR,,0.00000
IM2 7DS,,0.00000
IM2 7DT,,0.00000
IM2 7DU,,0.00000
IM2 7DW,,0.00000
IM2 7DX,,0.00000
IM2 7DY,,0.00000
IM2 7DZ,,0.00000
IM2 7EA,,0.00000
IM2 7EB,,0.00000
IM2 7ED,,0.00000
IM2 7EE,,0.00000
IM2 7EF,,0.00000
IM2 7EG,,0.00000
IM2 7EH,,0.00000
IM2 7EJ,,0.00000
IM2 7EL,,0.00000
IM2 7EN,,0.00000
IM2 7EP,,0.00000
IM2 7EQ,,0.00000
IM2 7ER,,0.00000
IM2 7ES,,0.00000
IM2 7ET,,0.00000
IM2 7EU,,0.00000
IM2 7EW,,0.00000
IM2 7EX,,0.00000
IM2 7PA,,0.00000
IM2 7RA,,0.00000
IM3 1AB,,0.00000
IM3 1AD,,0.00000
IM3 1AE,,0.00000
IM3 1AF,,0.00000
IM3 1AG,,0.00000
IM3 1AH,,0.00000
IM3 1AJ,,0.00000
IM3 1AL,,0.00000
IM3 1AN,,0.00000
IM3 1AP,,0.00000
IM3 1AQ,,0.00000
IM3 1AR,,0.00000
IM3 1AS,,0.00000
IM3 1AT,,0.00000
IM3 1AU,,0.00000
IM3 1AW,,0.00000
IM3 1AX,,0.00000
IM3 1AY,,0.00000
IM3 1AZ,,0.00000
IM3 1BA,,0.00000
IM3 1BB,,0.00000
IM3 1BD,,0.00000
IM3 1BE,,0.00000
IM3 1BF,,0.00000
IM3 1BG,,0.00000
IM3 1BH,,0.00000
IM3 1BJ,,0.00000
IM3 1BL,,0.00000
IM3 1BN,,0.00000
IM3 1BP,,0.00000
IM3 1BQ,,0.00000
IM3 1BR,,0.00000
IM3 1BS,,0.00000
IM3 1BT,,0.00000
IM3 1BU,,0.00000
IM3 1BW,,0.00000
IM3 1DZ,,0.00000
IM3 1EA,,0.00000
IM3 1EB,,0.00000
IM3 1ED,,0.00000
IM3 1EE,,0.00000
IM3 1EF,,0.00000
IM3 1EG,,0.00000
IM3 1EH,,0.00000
IM3 1EJ,,0.00000
IM3 1EL,,0.00000
IM3 1EN,,0.00000
IM3 1EP,,0.00000
IM3 1EQ,,0.00000
IM3 1ER,,0.00000
IM3 1ES,,0.00000
IM3 1ET,,0.00000
IM3 1EU,,0.00000
IM3 1EW,,0.00000
IM3 1EX,,0.00000
IM3 1EY,,0.00000
IM3 1EZ,,0.00000
IM3 1HA,,0.00000
IM3 1HB,,0.00000
IM3 1HD,,0.00000
IM3 1HE,,0.00000
IM3 1HF,,0.00000
IM3 1HG,,0.00000
IM3 1HH,,0.00000
IM3 1HJ,,0.00000
IM3 1HL,,0.00000
IM3 1HN,,0.00000
IM3 1HP,,0.00000
IM3 1HQ,,0.00000
IM3 1HR,,0.00000
IM3 1HS,,0.00000
IM3 1HT,,0.00000
IM3 1HU,,0.00000
IM3 1HW,,0.00000
IM3 1HX,,0.00000
IM3 1HY,,0.00000
IM3 1JA,,0.00000
IM3 1LA,,0.00000
IM3 1LB,,0.00000
IM3 1LD,,0.00000
IM3 1LE,,0.00000
IM3 1LF,,0.00000
IM3 1LG,,0.00000
IM3 1LH,,0.00000
IM3 1LJ,,0.00000
IM3 1LL,,0.00000
IM3 1LN,,0.00000
IM3 1LP,,0.00000
IM3 1LQ,,0.00000
IM3 1LR,,0.00000
IM3 1LS,,0.00000
IM3 1LT,,0.00000
IM3 1LU,,0.00000
IM3 1LW,,0.00000
IM3 1LX,,0.00000
IM3 1LY,,0.00000
IM3 1LZ,,0.00000
IM3 1NA,,0.00000
IM3 1NB,,0.00000
IM3 1ND,,0.00000
IM3 1NE,,0.00000
IM3 1NF,,0.00000
IM3 1NG,,0.00000
IM3 1NH,,0.00000
IM3 1NJ,,0.00000
IM3 1NL,,0.00000
IM3 1NN,,0.00000
IM3 1NP,,0.00000
IM3 1NQ,,0.00000
IM3 1NR,,0.00000
IM3 1NS,,0.00000
IM3 1NT,,0.00000
IM3 1NW,,0.00000
IM3 1RB,,0.00000
IM3 1RD,,0.00000
IM3 1RR,,0.00000
IM3 1RS,,0.00000
IM3 1TA,,0.00000
IM3 1TB,,0.00000
IM3 2AB,,0.00000
IM3 2AD,,0.00000
IM3 2AE,,0.00000
IM3 2AF,,0.00000
IM3 2AG,,0.00000
IM3 2AH,,0.00000
IM3 2AJ,,0.00000
IM3 2AL,,0.00000
IM3 2AN,,0.00000
IM3 2AP,,0.00000
IM3 2AR,,0.00000
IM3 2AS,,0.00000
IM3 2AT,,0.00000
IM3 2AU,,0.00000
IM3 2AW,,0.00000
IM3 2AX,,0.00000
IM3 2AY,,0.00000
IM3 2AZ,,0.00000
IM3 2BA,,0.00000
IM3 2BB,,0.00000
IM3 2BD,,0.00000
IM3 2BE,,0.00000
IM3 2DA,,0.00000
IM3 2DB,,0.00000
IM3 2DD,,0.00000
IM3 2DE,,0.00000
IM3 2DF,,0.00000
IM3 2DG,,0.00000
IM3 2DH,,0.00000
IM3 2DJ,,0.00000
IM3 2DL,,0.00000
IM3 2DN,,0.00000
IM3 2DP,,0.00000
IM3 2DQ,,0.00000
IM3 2DR,,0.00000
IM3 2DS,,0.00000
IM3 2DT,,0.00000
IM3 2DU,,0.00000
IM3 2DW,,0.00000
IM3 2DX,,0.00000
IM3 2DY,,0.00000
IM3 2DZ,,0.00000
IM3 2EA,,0.00000
IM3 2EB,,0.00000
IM3 2ED,,0.00000
IM3 2EE,,0.00000
IM3 2EF,,0.00000
IM3 2EG,,0.00000
IM3 2EH,,0.00000
IM3 2EJ,,0.00000
IM3 2EL,,0.00000
IM3 2EN,,0.00000
IM3 2EP,,0.00000
IM3 2EQ,,0.00000
IM3 2ER,,0.00000
IM3 2ES,,0.00000
IM3 2ET,,0.00000
IM3 2EU,,0.00000
IM3 2EW,,0.00000
IM3 2EX,,0.00000
IM3 2EY,,0.00000
IM3 2EZ,,0.00000
IM3 2HA,,0.00000
IM3 2HZ,,0.00000
IM3 2JA,,0.00000
IM3 2JB,,0.00000
IM3 2JD,,0.00000
IM3 2JE,,0.00000
IM3 2JF,,0.00000
IM3 2JG,,0.00000
IM3 2JH,,0.00000
IM3 2JJ,,0.00000
IM3 2JL,,0.00000
IM3 2JN,,0.00000
IM3 2JP,,0.00000
IM3 2JQ,,0.00000
IM3 2JR,,0.00000
IM3 2JS,,0.00000
IM3 2JT,,0.00000
IM3 2JU,,0.00000
IM3 2JW,,0.00000
IM3 2JX,,0.00000
IM3 2JY,,0.00000
IM3 2JZ,,0.00000
IM3 3AB,,0.00000
IM3 3AD,,0.00000
IM3 3AE,,0.00000
IM3 3AF,,0.00000
IM3 3AG,,0.00000
IM3 3AH,,0.00000
IM3 3AJ,,0.00000
IM3 3AL,,0.00000
IM3 3AN,,0.00000
IM3 3AP,,0.00000
IM3 3AQ,,0.00000
IM3 3AR,,0.00000
IM3 3BA,,0.00000
IM3 3BB,,0.00000
IM3 3BD,,0.00000
IM3 3BE,,0.00000
IM3 3BF,,0.00000
IM3 3BG,,0.00000
IM3 3BH,,0.00000
IM3 3BJ,,0.00000
IM3 3BL,,0.00000
IM3 3BN,,0.00000
IM3 3BP,,0.00000
IM3 3BQ,,0.00000
IM3 3BR,,0.00000
IM3 3BS,,0.00000
IM3 3BT,,0.00000
IM3 3BU,,0.00000
IM3 3BW,,0.00000
IM3 3BX,,0.00000
IM3 3BY,,0.00000
IM3 3BZ,,0.00000
IM3 3DA,,0.00000
IM3 3DB,,0.00000
IM3 3DD,,0.00000
IM3 3DE,,0.00000
IM3 3DF,,0.00000
IM3 3DG,,0.00000
IM3 3DH,,0.00000
IM3 3DJ,,0.00000
IM3 3DL,,0.00000
IM3 3DQ,,0.00000
IM3 3GA,,0.00000
IM3 3GB,,0.00000
IM3 3GD,,0.00000
IM3 3GE,,0.00000
IM3 3HA,,0.00000
IM3 3HB,,0.00000
IM3 3HD,,0.00000
IM3 3HE,,0.00000
IM3 3HF,,0.00000
IM3 3HG,,0.00000
IM3 3HH,,0.00000
IM3 3HJ,,0.00000
IM3 3HL,,0.00000
IM3 3HN,,0.00000
IM3 3HP,,0.00000
IM3 3HQ,,0.00000
IM3 3HR,,0.00000
IM3 3HS,,0.00000
IM3 3HT,,0.00000
IM3 3HU,,0.00000
IM3 3HW,,0.00000
IM3 3HX,,0.00000
IM3 3HY,,0.00000
IM3 3HZ,,0.00000
IM3 3JA,,0.00000
IM3 3JB,,0.00000
IM3 3JD,,0.00000
IM3 3JE,,0.00000
IM3 3JF,,0.00000
IM3 3JG,,0.00000
IM3 3JH,,0.00000
IM3 3JJ,,0.00000
IM3 3JL,,0.00000
IM3 3JN,,0.00000
IM3 3JP,,0.00000
IM3 3JQ,,0.00000
IM3 3JR,,0.00000
IM3 3JS,,0.00000
IM3 3JT,,0.00000
IM3 3LA,,0.00000
IM3 3TD,,0.00000
IM3 4AA,,0.00000
IM3 4AB,,0.00000
IM3 4AD,,0.00000
IM3 4AE,,0.00000
IM3 4AF,,0.00000
IM3 4AG,,0.00000
IM3 4AH,,0.00000
IM3 4AJ,,0.00000
IM3 4AL,,0.00000
IM3 4AN,,0.00000
IM3 4AP,,0.00000
IM3 4AQ,,0.00000
IM3 4AR,,0.00000
IM3 4AS,,0.00000
IM3 4AT,,0.00000
IM3 4AU,,0.00000
IM3 4AW,,0.00000
IM3 4AX,,0.00000
IM3 4AY,,0.00000
IM3 4AZ,,0.00000
IM3 4BA,,0.00000
IM3 4BB,,0.00000
IM3 4BD,,0.00000
IM3 4BE,,0.00000
IM3 4BF,,0.00000
IM3 4BG,,0.00000
IM3 4BH,,0.00000
IM3 4BJ,,0.00000
IM3 4BL,,0.00000
IM3 4BN,,0.00000
IM3 4BP,,0.00000
IM3 4BQ,,0.00000
IM3 4BR,,0.00000
IM3 4BS,,0.00000
IM3 4BT,,0.00000
IM3 4BU,,0.00000
IM3 4BW,,0.00000
IM3 4EA,,0.00000
IM3 4EB,,0.00000
IM3 4ED,,0.00000
IM3 4EF,,0.00000
IM3 4EG,,0.00000
IM3 4EH,,0.00000
IM3 4EJ,,0.00000
IM3 4EL,,0.00000
IM3 4EN,,0.00000
IM3 4EP,,0.00000
IM3 4EQ,,0.00000
IM3 4ES,,0.00000
IM3 4ET,,0.00000
IM3 4EU,,0.00000
IM3 4EW,,0.00000
IM3 4EX,,0.00000
IM3 4EY,,0.00000
IM3 4EZ,,0.00000
IM3 4HA,,0.00000
IM3 4HB,,0.00000
IM3 4HD,,0.00000
IM3 4HE,,0.00000
IM3 4HF,,0.00000
IM3 4HG,,0.00000
IM3 4HH,,0.00000
IM3 4HJ,,0.00000
IM3 4HL,,0.00000
IM3 4HN,,0.00000
IM3 4HP,,0.00000
IM3 4HQ,,0.00000
IM3 4HR,,0.00000
IM3 4HS,,0.00000
IM3 4LA,,0.00000
IM3 4LB,,0.00000
IM3 4LD,,0.00000
IM3 4LE,,0.00000
IM3 4LF,,0.00000
IM3 4LG,,0.00000
IM3 4LH,,0.00000
IM3 4LJ,,0.00000
IM3 4LN,,0.00000
IM3 4LP,,0.00000
IM3 4LQ,,0.00000
IM3 4LR,,0.00000
IM3 4LS,,0.00000
IM3 4LT,,0.00000
IM3 4LU,,0.00000
IM3 4LW,,0.00000
IM3 4LX,,0.00000
IM3 4LY,,0.00000
IM3 4LZ,,0.00000
IM3 4NA,,0.00000
IM3 4NB,,0.00000
IM3 4ND,,0.00000
IM3 4NE,,0.00000
IM3 4NF,,0.00000
IM3 4NG,,0.00000
IM3 4NH,,0.00000
IM3 4NJ,,0.00000
IM3 4NL,,0.00000
IM3 4NN,,0.00000
IM3 4NP,,0.00000
IM3 4NQ,,0.00000
IM3 4NR,,0.00000
IM3 4NS,,0.00000
IM3 4NT,,0.00000
IM3 4NU,,0.00000
IM3 4NW,,0.00000
IM3 4NX,,0.00000
IM3 4NY,,0.00000
IM3 4PA,,0.00000
IM3 4PB,,0.00000
IM3 4PD,,0.00000
IM3 4PE,,0.00000
IM3 4PR,,0.00000
IM3 4RA,,0.00000
IM3 4RB,,0.00000
IM4 1AB,,0.00000
IM4 1AD,,0.00000
IM4 1AE,,0.00000
IM4 1AF,,0.00000
IM4 1AG,,0.00000
IM4 1AH,,0.00000
IM4 1AJ,,0.00000
IM4 1AL,,0.00000
IM4 1AN,,0.00000
IM4 1AP,,0.00000
IM4 1AQ,,0.00000
IM4 1AR,,0.00000
IM4 1AS,,0.00000
IM4 1AT,,0.00000
IM4 1AU,,0.00000
IM4 1AW,,0.00000
IM4 1AY,,0.00000
IM4 1AZ,,0.00000
IM4 1BA,,0.00000
IM4 1BB,,0.00000
IM4 1BD,,0.00000
IM4 1BE,,0.00000
IM4 1BF,,0.00000
IM4 1BG,,0.00000
IM4 1BH,,0.00000
IM4 1BJ,,0.00000
IM4 1EA,,0.00000
IM4 1EB,,0.00000
IM4 1ED,,0.00000
IM4 1EE,,0.00000
IM4 1EF,,0.00000
IM4 1EG,,0.00000
IM4 1EH,,0.00000
IM4 1EJ,,0.00000
IM4 1EN,,0.00000
IM4 1EP,,0.00000
IM4 1ER,,0.00000
IM4 1ES,,0.00000
IM4 1ET,,0.00000
IM4 1EU,,0.00000
IM4 1EW,,0.00000
IM4 1EX,,0.00000
IM4 1EY,,0.00000
IM4 1EZ,,0.00000
IM4 1HA,,0.00000
IM4 1HB,,0.00000
IM4 1HD,,0.00000
IM4 1HE,,0.00000
IM4 1HF,,0.00000
IM4 1HG,,0.00000
IM4 1HH,,0.00000
IM4 1HJ,,0.00000
IM4 1HL,,0.00000
IM4 1HN,,0.00000
IM4 1HP,,0.00000
IM4 1HQ,,0.00000
IM4 1HR,,0.00000
IM4 1HS,,0.00000
IM4 1HT,,0.00000
IM4 1HU,,0.00000
IM4 1HW,,0.00000
IM4 1HX,,0.00000
IM4 1HY,,0.00000
IM4 1HZ,,0.00000
IM4 1JA,,0.00000
IM4 1JB,,0.00000
IM4 1JD,,0.00000
IM4 1JE,,0.00000
IM4 1JF,,0.00000
IM4 1JG,,0.00000
IM4 1JH,,0.00000
IM4 1JJ,,0.00000
IM4 1JL,,0.00000
IM4 1JQ,,0.00000
IM4 2AB,,0.00000
IM4 2AD,,0.00000
IM4 2AE,,0.00000
IM4 2AF,,0.00000
IM4 2AG,,0.00000
IM4 2AH,,0.00000
IM4 2AJ,,0.00000
IM4 2AL,,0.00000
IM4 2AN,,0.00000
IM4 2AP,,0.00000
IM4 2AQ,,0.00000
IM4 2AR,,0.00000
IM4 2AS,,0.00000
IM4 2AT,,0.00000
IM4 2AU,,0.00000
IM4 2AW,,0.00000
IM4 2AX,,0.00000
IM4 2AY,,0.00000
IM4 2AZ,,0.00000
IM4 2DA,,0.00000
IM4 2DB,,0.00000
IM4 2DD,,0.00000
IM4 2DE,,0.00000
IM4 2DF,,0.00000
IM4 2DG,,0.00000
IM4 2DH,,0.00000
IM4 2DJ,,0.00000
IM4 2DL,,0.00000
IM4 2DN,,0.00000
IM4 2DP,,0.00000
IM4 2DQ,,0.00000
IM4 2DR,,0.00000
IM4 2DS,,0.00000
IM4 2DT,,0.00000
IM4 2DU,,0.00000
IM4 2DW,,0.00000
IM4 2DX,,0.00000
IM4 2DY,,0.00000
IM4 2EA,,0.00000
IM4 2EB,,0.00000
IM4 2ED,,0.00000
IM4 2EE,,0.00000
IM4 2EF,,0.00000
IM4 2GY,,0.00000
IM4 2GZ,,0.00000
IM4 2HA,,0.00000
IM4 2HB,,0.00000
IM4 2HD,,0.00000
IM4 2HE,,0.00000
IM4 2HF,,0.00000
IM4 2HG,,0.00000
IM4 2HH,,0.00000
IM4 2HJ,,0.00000
IM4 2HL,,0.00000
IM4 2HN,,0.00000
IM4 2HP,,0.00000
IM4 2HQ,,0.00000
IM4 2HR,,0.00000
IM4 2HS,,0.00000
IM4 2HT,,0.00000
IM4 2HU,,0.00000
IM4 2HW,,0.00000
IM4 2HX,,0.00000
IM4 2HY,,0.00000
IM4 2HZ,,0.00000
IM4 2JA,,0.00000
IM4 2JB,,0.00000
IM4 2JD,,0.00000
IM4 2JE,,0.00000
IM4 2JF,,0.00000
IM4 2JG,,0.00000
IM4 2JH,,0.00000
IM4 2JJ,,0.00000
IM4 2JL,,0.00000
IM4 2JN,,0.00000
IM4 2QP,,0.00000
IM4 3AB,,0.00000
IM4 3AD,,0.00000
IM4 3AE,,0.00000
IM4 3AF,,0.00000
IM4 3AG,,0.00000
IM4 3AH,,0.00000
IM4 3AJ,,0.00000
IM4 3AL,,0.00000
IM4 3AN,,0.00000
IM4 3AP,,0.00000
IM4 3AQ,,0.00000
IM4 3AR,,0.00000
IM4 3AS,,0.00000
IM4 3AT,,0.00000
IM4 3AU,,0.00000
IM4 3AW,,0.00000
IM4 3AX,,0.00000
IM4 3AY,,0.00000
IM4 3AZ,,0.00000
IM4 3BA,,0.00000
IM4 3BB,,0.00000
IM4 3BD,,0.00000
IM4 3BE,,0.00000
IM4 3BF,,0.00000
IM4 3BG,,0.00000
IM4 3BH,,0.00000
IM4 3BJ,,0.00000
IM4 3BL,,0.00000
IM4 3BN,,0.00000
IM4 3BP,,0.00000
IM4 3BQ,,0.00000
IM4 3BR,,0.00000
IM4 3EA,,0.00000
IM4 3EB,,0.00000
IM4 3ED,,0.00000
IM4 3EE,,0.00000
IM4 3EF,,0.00000
IM4 3EG,,0.00000
IM4 3EH,,0.00000
IM4 3EJ,,0.00000
IM4 3EL,,0.00000
IM4 3EN,,0.00000
IM4 3EP,,0.00000
IM4 3EQ,,0.00000
IM4 3ER,,0.00000
IM4 3ES,,0.00000
IM4 3ET,,0.00000
IM4 3EU,,0.00000
IM4 3EW,,0.00000
IM4 3EX,,0.00000
IM4 3EY,,0.00000
IM4 3EZ,,0.00000
IM4 3FA,,0.00000
IM4 3FB,,0.00000
IM4 3HA,,0.00000
IM4 3HB,,0.00000
IM4 3HD,,0.00000
IM4 3HE,,0.00000
IM4 3HF,,0.00000
IM4 3HG,,0.00000
IM4 3HH,,0.00000
IM4 3HJ,,0.00000
IM4 3HL,,0.00000
IM4 3HN,,0.00000
IM4 3HP,,0.00000
IM4 3HQ,,0.00000
IM4 3HR,,0.00000
IM4 3HS,,0.00000
IM4 3HT,,0.00000
IM4 3HU,,0.00000
IM4 3HW,,0.00000
IM4 3HX,,0.00000
IM4 3HY,,0.00000
IM4 3HZ,,0.00000
IM4 3JA,,0.00000
IM4 3JB,,0.00000
IM4 3JD,,0.00000
IM4 3JE,,0.00000
IM4 3JF,,0.00000
IM4 3JG,,0.00000
IM4 3JH,,0.00000
IM4 3JJ,,0.00000
IM4 3JL,,0.00000
IM4 3JN,,0.00000
IM4 3JP,,0.00000
IM4 3JQ,,0.00000
IM4 3JR,,0.00000
IM4 3JS,,0.00000
IM4 3JT,,0.00000
IM4 3JU,,0.00000
IM4 3JW,,0.00000
IM4 3JX,,0.00000
IM4 3LA,,0.00000
IM4 3LB,,0.00000
IM4 3LD,,0.00000
IM4 3LE,,0.00000
IM4 3LF,,0.00000
IM4 3LG,,0.00000
IM4 3LH,,0.00000
IM4 3LJ,,0.00000
IM4 3LL,,0.00000
IM4 3LN,,0.00000
IM4 3LP,,0.00000
IM4 3LQ,,0.00000
IM4 3LR,,0.00000
IM4 3LS,,0.00000
IM4 3LT,,0.00000
IM4 3LU,,0.00000
IM4 3LW,,0.00000
IM4 3LX,,0.00000
IM4 3LY,,0.00000
IM4 3LZ,,0.00000
IM4 3NA,,0.00000
IM4 3NB,,0.00000
IM4 3ND,,0.00000
IM4 3NE,,0.00000
IM4 3NF,,0.00000
IM4 3NG,,0.00000
IM4 3NH,,0.00000
IM4 3NJ,,0.00000
IM4 3NL,,0.00000
IM4 3NN,,0.00000
IM4 3NP,,0.00000
IM4 3NQ,,0.00000
IM4 3NR,,0.00000
IM4 3NS,,0.00000
IM4 3RA,,0.00000
IM4 3RB,,0.00000
IM4 3RD,,0.00000
IM4 4AB,,0.00000
IM4 4AD,,0.00000
IM4 4AE,,0.00000
IM4 4AF,,0.00000
IM4 4AG,,0.00000
IM4 4AH,,0.00000
IM4 4AJ,,0.00000
IM4 4AL,,0.00000
IM4 4AN,,0.00000
IM4 4AP,,0.00000
IM4 4AQ,,0.00000
IM4 4AR,,0.00000
IM4 4AS,,0.00000
IM4 4AT,,0.00000
IM4 4AU,,0.00000
IM4 4AW,,0.00000
IM4 4AX,,0.00000
IM4 4AY,,0.00000
IM4 4AZ,,0.00000
IM4 4BA,,0.00000
IM4 4BB,,0.00000
IM4 4BD,,0.00000
IM4 4BE,,0.00000
IM4 4BF,,0.00000
IM4 4BG,,0.00000
IM4 4BH,,0.00000
IM4 4BJ,,0.00000
IM4 4BL,,0.00000
IM4 4BN,,0.00000
IM4 4BP,,0.00000
IM4 4BQ,,0.00000
IM4 4BR,,0.00000
IM4 4BS,,0.00000
IM4 4BT,,0.00000
IM4 4BU,,0.00000
IM4 4BW,,0.00000
IM4 4BX,,0.00000
IM4 4BY,,0.00000
IM4 4BZ,,0.00000
IM4 4DA,,0.00000
IM4 4DB,,0.00000
IM4 4DD,,0.00000
IM4 4DZ,,0.00000
IM4 4EA,,0.00000
IM4 4EB,,0.00000
IM4 4ED,,0.00000
IM4 4EE,,0.00000
IM4 4EF,,0.00000
IM4 4EG,,0.00000
IM4 4EH,,0.00000
IM4 4EJ,,0.00000
IM4 4EL,,0.00000
IM4 4EN,,0.00000
IM4 4EP,,0.00000
IM4 4EQ,,0.00000
IM4 4ER,,0.00000
IM4 4ES,,0.00000
IM4 4ET,,0.00000
IM4 4EU,,0.00000
IM4 4EW,,0.00000
IM4 4EX,,0.00000
IM4 4EY,,0.00000
IM4 4EZ,,0.00000
IM4 4FA,,0.00000
IM4 4FB,,0.00000
IM4 4FD,,0.00000
IM4 4FE,,0.00000
IM4 4FF,,0.00000
IM4 4FG,,0.00000
IM4 4FH,,0.00000
IM4 4FJ,,0.00000
IM4 4FL,,0.00000
IM4 4FN,,0.00000
IM4 4HA,,0.00000
IM4 4HB,,0.00000
IM4 4HD,,0.00000
IM4 4HE,,0.00000
IM4 4HF,,0.00000
IM4 4HG,,0.00000
IM4 4HH,,0.00000
IM4 4HJ,,0.00000
IM4 4HL,,0.00000
IM4 4HN,,0.00000
IM4 4HP,,0.00000
IM4 4HQ,,0.00000
IM4 4HR,,0.00000
IM4 4HS,,0.00000
IM4 4HT,,0.00000
IM4 4HU,,0.00000
IM4 4HW,,0.00000
IM4 4HX,,0.00000
IM4 4HY,,0.00000
IM4 4HZ,,0.00000
IM4 4JA,,0.00000
IM4 4JY,,0.00000
IM4 4JZ,,0.00000
IM4 4LA,,0.00000
IM4 4LB,,0.00000
IM4 4LD,,0.00000
IM4 4LE,,0.00000
IM4 4LF,,0.00000
IM4 4LG,,0.00000
IM4 4LH,,0.00000
IM4 4LJ,,0.00000
IM4 4LL,,0.00000
IM4 4LN,,0.00000
IM4 4LP,,0.00000
IM4 4LQ,,0.00000
IM4 4LR,,0.00000
IM4 4LS,,0.00000
IM4 4LT,,0.00000
IM4 4LU,,0.00000
IM4 4LW,,0.00000
IM4 4LX,,0.00000
IM4 4LY,,0.00000
IM4 4LZ,,0.00000
IM4 4NA,,0.00000
IM4 4NB,,0.00000
IM4 4ND,,0.00000
IM4 4NE,,0.00000
IM4 4NF,,0.00000
IM4 4NG,,0.00000
IM4 4NH,,0.00000
IM4 4NJ,,0.00000
IM4 4NL,,0.00000
IM4 4NN,,0.00000
IM4 4NP,,0.00000
IM4 4NQ,,0.00000
IM4 4NR,,0.00000
IM4 4NS,,0.00000
IM4 4NT,,0.00000
IM4 4NU,,0.00000
IM4 4NW,,0.00000
IM4 4NX,,0.00000
IM4 4NY,,0.00000
IM4 4NZ,,0.00000
IM4 4PA,,0.00000
IM4 4PB,,0.00000
IM4 4PD,,0.00000
IM4 4PE,,0.00000
IM4 4PZ,,0.00000
IM4 4QA,,0.00000
IM4 4QB,,0.00000
IM4 4QD,,0.00000
IM4 4QE,,0.00000
IM4 4QF,,0.00000
IM4 4QG,,0.00000
IM4 4QH,,0.00000
IM4 4QJ,,0.00000
IM4 4QL,,0.00000
IM4 4QN,,0.00000
IM4 4QP,,0.00000
IM4 4QQ,,0.00000
IM4 4QR,,0.00000
IM4 4QS,,0.00000
IM4 4QT,,0.00000
IM4 4QU,,0.00000
IM4 4QW,,0.00000
IM4 4QX,,0.00000
IM4 4QY,,0.00000
IM4 4QZ,,0.00000
IM4 4RA,,0.00000
IM4 4RB,,0.00000
IM4 4RD,,0.00000
IM4 4RE,,0.00000
IM4 4RF,,0.00000
IM4 4RG,,0.00000
IM4 4RH,,0.00000
IM4 4RJ,,0.00000
IM4 4RL,,0.00000
IM4 4RN,,0.00000
IM4 4RP,,0.00000
IM4 4RQ,,0.00000
IM4 4RR,,0.00000
IM4 4RS,,0.00000
IM4 4RT,,0.00000
IM4 4RU,,0.00000
IM4 4RW,,0.00000
IM4 4SB,,0.00000
IM4 4TA,,0.00000
IM4 4TB,,0.00000
IM4 4TD,,0.00000
IM4 4TE,,0.00000
IM4 4TF,,0.00000
IM4 4TG,,0.00000
IM4 4TH,,0.00000
IM4 4TJ,,0.00000
IM4 4TL,,0.00000
IM4 4TN,,0.00000
IM4 4TP,,0.00000
IM4 4TQ,,0.00000
IM4 4TR,,0.00000
IM4 4TS,,0.00000
IM4 4TT,,0.00000
IM4 4TW,,0.00000
IM4 5AB,,0.00000
IM4 5AD,,0.00000
IM4 5AE,,0.00000
IM4 5AF,,0.00000
IM4 5BA,,0.00000
IM4 5BB,,0.00000
IM4 5BD,,0.00000
IM4 5BE,,0.00000
IM4 5BF,,0.00000
IM4 5BG,,0.00000
IM4 5BH,,0.00000
IM4 5BJ,,0.00000
IM4 5BL,,0.00000
IM4 5BN,,0.00000
IM4 5BP,,0.00000
IM4 5BQ,,0.00000
IM4 5BR,,0.00000
IM4 5BS,,0.00000
IM4 5BT,,0.00000
IM4 5BU,,0.00000
IM4 5BW,,0.00000
IM4 5BX,,0.00000
IM4 5EA,,0.00000
IM4 5EB,,0.00000
IM4 5ED,,0.00000
IM4 5EE,,0.00000
IM4 5EF,,0.00000
IM4 5EG,,0.00000
IM4 5EH,,0.00000
IM4 5EJ,,0.00000
IM4 5EL,,0.00000
IM4 5EN,,0.00000
IM4 5EP,,0.00000
IM4 5EQ,,0.00000
IM4 5ER,,0.00000
IM4 5ES,,0.00000
IM4 5ET,,0.00000
IM4 5EU,,0.00000
IM4 5EW,,0.00000
IM4 5EX,,0.00000
IM4 5EY,,0.00000
IM4 5EZ,,0.00000
IM4 5HA,,0.00000
IM4 5HB,,0.00000
IM4 5HD,,0.00000
IM4 5HE,,0.00000
IM4 5HF,,0.00000
IM4 6AB,,0.00000
IM4 6AD,,0.00000
IM4 6AE,,0.00000
IM4 6AF,,0.00000
IM4 6AG,,0.00000
IM4 6AH,,0.00000
IM4 6AJ,,0.00000
IM4 6AL,,0.00000
IM4 6AN,,0.00000
IM4 6AP,,0.00000
IM4 6AQ,,0.00000
IM4 6AR,,0.00000
IM4 6AS,,0.00000
IM4 6AT,,0.00000
IM4 6AU,,0.00000
IM4 6AX,,0.00000
IM4 6DA,,0.00000
IM4 6DB,,0.00000
IM4 6DD,,0.00000
IM4 6DE,,0.00000
IM4 6DF,,0.00000
IM4 6DG,,0.00000
IM4 6DH,,0.00000
IM4 6DJ,,0.00000
IM4 6DL,,0.00000
IM4 6DN,,0.00000
IM4 6DP,,0.00000
IM4 6DQ,,0.00000
IM4 6DR,,0.00000
IM4 6DS,,0.00000
IM4 6DT,,0.00000
IM4 6DU,,0.00000
IM4 6DW,,0.00000
IM4 6DX,,0.00000
IM4 6DY,,0.00000
IM4 6DZ,,0.00000
IM4 6EA,,0.00000
IM4 6EB,,0.00000
IM4 6ED,,0.00000
IM4 6EE,,0.00000
IM4 6EF,,0.00000
IM4 6EG,,0.00000
IM4 6EH,,0.00000
IM4 6EJ,,0.00000
IM4 6EL,,0.00000
IM4 6EN,,0.00000
IM4 6EP,,0.00000
IM4 6ER,,0.00000
IM4 6ES,,0.00000
IM4 6ET,,0.00000
IM4 6HA,,0.00000
IM4 7AA,,0.00000
IM4 7AB,,0.00000
IM4 7AD,,0.00000
IM4 7AE,,0.00000
IM4 7AF,,0.00000
IM4 7AG,,0.00000
IM4 7AH,,0.00000
IM4 7AJ,,0.00000
IM4 7AL,,0.00000
IM4 7AN,,0.00000
IM4 7AP,,0.00000
IM4 7AQ,,0.00000
IM4 7AR,,0.00000
IM4 7AS,,0.00000
IM4 7AT,,0.00000
IM4 7AU,,0.00000
IM4 7AW,,0.00000
IM4 7AX,,0.00000
IM4 7AY,,0.00000
IM4 7AZ,,0.00000
IM4 7BA,,0.00000
IM4 7BB,,0.00000
IM4 7BD,,0.00000
IM4 7BE,,0.00000
IM4 7BF,,0.00000
IM4 7BG,,0.00000
IM4 7BH,,0.00000
IM4 7BJ,,0.00000
IM4 7BL,,0.00000
IM4 7BN,,0.00000
IM4 7BP,,0.00000
IM4 7BQ,,0.00000
IM4 7BR,,0.00000
IM4 7BS,,0.00000
IM4 7BT,,0.00000
IM4 7BU,,0.00000
IM4 7BW,,0.00000
IM4 7BX,,0.00000
IM4 7BY,,0.00000
IM4 7BZ,,0.00000
IM4 7DA,,0.00000
IM4 7DB,,0.00000
IM4 7DD,,0.00000
IM4 7DE,,0.00000
IM4 7DF,,0.00000
IM4 7DG,,0.00000
IM4 7DH,,0.00000
IM4 7DJ,,0.00000
IM4 7DL,,0.00000
IM4 7DN,,0.00000
IM4 7DP,,0.00000
IM4 7DQ,,0.00000
IM4 7DR,,0.00000
IM4 7DS,,0.00000
IM4 7DT,,0.00000
IM4 7DU,,0.00000
IM4 7DW,,0.00000
IM4 7DX,,0.00000
IM4 7DY,,0.00000
IM4 7DZ,,0.00000
IM4 7EA,,0.00000
IM4 7EB,,0.00000
IM4 7ED,,0.00000
IM4 7EE,,0.00000
IM4 7EF,,0.00000
IM4 7EG,,0.00000
IM4 7HB,,0.00000
IM4 7HD,,0.00000
IM4 7HE,,0.00000
IM4 7HF,,0.00000
IM4 7HG,,0.00000
IM4 7HH,,0.00000
IM4 7HJ,,0.00000
IM4 7HL,,0.00000
IM4 7HN,,0.00000
IM4 7HP,,0.00000
IM4 7HQ,,0.00000
IM4 7HR,,0.00000
IM4 7HS,,0.00000
IM4 7HT,,0.00000
IM4 7HU,,0.00000
IM4 7HW,,0.00000
IM4 7HX,,0.00000
IM4 7HY,,0.00000
IM4 7HZ,,0.00000
IM4 7JA,,0.00000
IM4 7JB,,0.00000
IM4 7JD,,0.00000
IM4 7JE,,0.00000
IM4 7JF,,0.00000
IM4 7JG,,0.00000
IM4 7JH,,0.00000
IM4 7JJ,,0.00000
IM4 7JL,,0.00000
IM4 7JN,,0.00000
IM4 7JP,,0.00000
IM4 7JQ,,0.00000
IM4 7JR,,0.00000
IM4 7JS,,0.00000
IM4 7JT,,0.00000
IM4 7JU,,0.00000
IM4 7JW,,0.00000
IM4 7JX,,0.00000
IM4 7JY,,0.00000
IM4 7LA,,0.00000
IM4 7LB,,0.00000
IM4 7LD,,0.00000
IM4 7LE,,0.00000
IM4 7LF,,0.00000
IM4 7LG,,0.00000
IM4 7NA,,0.00000
IM4 7NB,,0.00000
IM4 7ND,,0.00000
IM4 7NE,,0.00000
IM4 7NF,,0.00000
IM4 7NG,,0.00000
IM4 7NH,,0.00000
IM4 7NJ,,0.00000
IM4 7NL,,0.00000
IM4 7NN,,0.00000
IM4 7NP,,0.00000
IM4 7NQ,,0.00000
IM4 7NR,,0.00000
IM4 7NS,,0.00000
IM4 7NT,,0.00000
IM4 7NU,,0.00000
IM4 7NW,,0.00000
IM4 7NX,,0.00000
IM4 7NY,,0.00000
IM4 7NZ,,0.00000
IM4 7PA,,0.00000
IM4 7PB,,0.00000
IM4 7PD,,0.00000
IM4 7PE,,0.00000
IM4 7PF,,0.00000
IM4 7PG,,0.00000
IM4 7PH,,0.00000
IM4 7PJ,,0.00000
IM4 7PL,,0.00000
IM4 7PN,,0.00000
IM4 7PP,,0.00000
IM4 7PQ,,0.00000
IM4 7PR,,0.00000
IM4 7PS,,0.00000
IM4 7PT,,0.00000
IM4 7PU,,0.00000
IM4 7PW,,0.00000
IM4 7PX,,0.00000
IM4 7PY,,0.00000
IM4 7PZ,,0.00000
IM4 7QA,,0.00000
IM4 7QB,,0.00000
IM4 7QD,,0.00000
IM4 7QE,,0.00000
IM4 7QF,,0.00000
IM4 7QG,,0.00000
IM4 7QH,,0.00000
IM4 7QJ,,0.00000
IM4 7QL,,0.00000
IM4 7QN,,0.00000
IM4 7QP,,0.00000
IM4 7QQ,,0.00000
IM4 7QR,,0.00000
IM5 1AA,,0.00000
IM5 1AB,,0.00000
IM5 1AD,,0.00000
IM5 1AE,,0.00000
IM5 1AF,,0.00000
IM5 1AG,,0.00000
IM5 1AH,,0.00000
IM5 1AJ,,0.00000
IM5 1AL,,0.00000
IM5 1AN,,0.00000
IM5 1AP,,0.00000
IM5 1AQ,,0.00000
IM5 1AR,,0.00000
IM5 1AS,,0.00000
IM5 1AT,,0.00000
IM5 1AU,,0.00000
IM5 1AW,,0.00000
IM5 1AX,,0.00000
IM5 1AY,,0.00000
IM5 1AZ,,0.00000
IM5 1BA,,0.00000
IM5 1BB,,0.00000
IM5 1BD,,0.00000
IM5 1BE,,0.00000
IM5 1BF,,0.00000
IM5 1BG,,0.00000
IM5 1BH,,0.00000
IM5 1BJ,,0.00000
IM5 1BL,,0.00000
IM5 1BN,,0.00000
IM5 1BP,,0.00000
IM5 1BQ,,0.00000
IM5 1BR,,0.00000
IM5 1BS,,0.00000
IM5 1BT,,0.00000
IM5 1BU,,0.00000
IM5 1BW,,0.00000
IM5 1BX,,0.00000
IM5 1BY,,0.00000
IM5 1BZ,,0.00000
IM5 1DA,,0.00000
IM5 1DB,,0.00000
IM5 1DD,,0.00000
IM5 1DE,,0.00000
IM5 1DF,,0.00000
IM5 1DG,,0.00000
IM5 1DH,,0.00000
IM5 1DJ,,0.00000
IM5 1DL,,0.00000
IM5 1DN,,0.00000
IM5 1DP,,0.00000
IM5 1DQ,,0.00000
IM5 1DR,,0.00000
IM5 1DS,,0.00000
IM5 1DT,,0.00000
IM5 1DU,,0.00000
IM5 1DW,,0.00000
IM5 1DX,,0.00000
IM5 1DY,,0.00000
IM5 1DZ,,0.00000
IM5 1GA,,0.00000
IM5 1GB,,0.00000
IM5 1GD,,0.00000
IM5 1GE,,0.00000
IM5 1GF,,0.00000
IM5 1GG,,0.00000
IM5 1GH,,0.00000
IM5 1GJ,,0.00000
IM5 1GL,,0.00000
IM5 1GN,,0.00000
IM5 1GP,,0.00000
IM5 1GQ,,0.00000
IM5 1GR,,0.00000
IM5 1GS,,0.00000
IM5 1GT,,0.00000
IM5 1GU,,0.00000
IM5 1GW,,0.00000
IM5 1HA,,0.00000
IM5 1HB,,0.00000
IM5 1HD,,0.00000
IM5 1HE,,0.00000
IM5 1HF,,0.00000
IM5 1HG,,0.00000
IM5 1HH,,0.00000
IM5 1HJ,,0.00000
IM5 1HL,,0.00000
IM5 1HN,,0.00000
IM5 1HP,,0.00000
IM5 1HQ,,0.00000
IM5 1HR,,0.00000
IM5 1HS,,0.00000
IM5 1HT,,0.00000
IM5 1HU,,0.00000
IM5 1HW,,0.00000
IM5 1JA,,0.00000
IM5 1JB,,0.00000
IM5 1JD,,0.00000
IM5 1JE,,0.00000
IM5 1JF,,0.00000
IM5 1JG,,0.00000
IM5 1JH,,0.00000
IM5 1JJ,,0.00000
IM5 1JL,,0.00000
IM5 1JN,,0.00000
IM5 1JP,,0.00000
IM5 1JQ,,0.00000
IM5 1JR,,0.00000
IM5 1JS,,0.00000
IM5 1JT,,0.00000
IM5 1JU,,0.00000
IM5 1JW,,0.00000
IM5 1JX,,0.00000
IM5 1JY,,0.00000
IM5 1JZ,,0.00000
IM5 1LA,,0.00000
IM5 1LB,,0.00000
IM5 1LD,,0.00000
IM5 1LJ,,0.00000
IM5 1LN,,0.00000
IM5 1LP,,0.00000
IM5 1NA,,0.00000
IM5 1NB,,0.00000
IM5 1ND,,0.00000
IM5 1NE,,0.00000
IM5 1NF,,0.00000
IM5 1NG,,0.00000
IM5 1NH,,0.00000
IM5 1NJ,,0.00000
IM5 1NL,,0.00000
IM5 1NN,,0.00000
IM5 1NP,,0.00000
IM5 1NQ,,0.00000
IM5 1NR,,0.00000
IM5 1NS,,0.00000
IM5 1NT,,0.00000
IM5 1NU,,0.00000
IM5 1NW,,0.00000
IM5 1NX,,0.00000
IM5 1NY,,0.00000
IM5 1NZ,,0.00000
IM5 1PA,,0.00000
IM5 1PB,,0.00000
IM5 1PD,,0.00000
IM5 1PE,,0.00000
IM5 1PF,,0.00000
IM5 1PG,,0.00000
IM5 1PH,,0.00000
IM5 1PJ,,0.00000
IM5 1PL,,0.00000
IM5 1PN,,0.00000
IM5 1PP,,0.00000
IM5 1PQ,,0.00000
IM5 1PR,,0.00000
IM5 1PS,,0.00000
IM5 1PT,,0.00000
IM5 1PU,,0.00000
IM5 1PW,,0.00000
IM5 1PX,,0.00000
IM5 1PY,,0.00000
IM5 1PZ,,0.00000
IM5 1QA,,0.00000
IM5 1QB,,0.00000
IM5 1QD,,0.00000
IM5 1QE,,0.00000
IM5 1QF,,0.00000
IM5 1QG,,0.00000
IM5 1QH,,0.00000
IM5 1QN,,0.00000
IM5 1QP,,0.00000
IM5 1QQ,,0.00000
IM5 1QR,,0.00000
IM5 1QS,,0.00000
IM5 1QT,,0.00000
IM5 1QU,,0.00000
IM5 1QW,,0.00000
IM5 1QX,,0.00000
IM5 1QY,,0.00000
IM5 1QZ,,0.00000
IM5 1RB,,0.00000
IM5 1RD,,0.00000
IM5 1RE,,0.00000
IM5 1RF,,0.00000
IM5 1RG,,0.00000
IM5 1RH,,0.00000
IM5 1RJ,,0.00000
IM5 1RL,,0.00000
IM5 1RN,,0.00000
IM5 1RW,,0.00000
IM5 1SW,,0.00000
IM5 1TA,,0.00000
IM5 1TB,,0.00000
IM5 1TD,,0.00000
IM5 1TE,,0.00000
IM5 1TF,,0.00000
IM5 1TG,,0.00000
IM5 1UA,,0.00000
IM5 1UB,,0.00000
IM5 1UD,,0.00000
IM5 1UE,,0.00000
IM5 1UF,,0.00000
IM5 1UG,,0.00000
IM5 1UH,,0.00000
IM5 1UJ,,0.00000
IM5 1UL,,0.00000
IM5 1UN,,0.00000
IM5 1UP,,0.00000
IM5 1UQ,,0.00000
IM5 1UR,,0.00000
IM5 1US,,0.00000
IM5 1UT,,0.00000
IM5 1UU,,0.00000
IM5 1UW,,0.00000
IM5 1UX,,0.00000
IM5 1WA,,0.00000
IM5 1WB,,0.00000
IM5 1WD,,0.00000
IM5 1WE,,0.00000
IM5 1WF,,0.00000
IM5 1WG,,0.00000
IM5 1WH,,0.00000
IM5 1WJ,,0.00000
IM5 1WL,,0.00000
IM5 1WN,,0.00000
IM5 1WP,,0.00000
IM5 1WQ,,0.00000
IM5 1WR,,0.00000
IM5 1WS,,0.00000
IM5 1WT,,0.00000
IM5 1WU,,0.00000
IM5 1WW,,0.00000
IM5 1WX,,0.00000
IM5 1WY,,0.00000
IM5 1WZ,,0.00000
IM5 1XA,,0.00000
IM5 1XB,,0.00000
IM5 1XD,,0.00000
IM5 1XE,,0.00000
IM5 1XF,,0.00000
IM5 1XG,,0.00000
IM5 1XH,,0.00000
IM5 2AB,,0.00000
IM5 2AD,,0.00000
IM5 2AE,,0.00000
IM5 2AF,,0.00000
IM5 2AG,,0.00000
IM5 2AH,,0.00000
IM5 2AJ,,0.00000
IM5 2AL,,0.00000
IM5 2AN,,0.00000
IM5 2AP,,0.00000
IM5 2AQ,,0.00000
IM5 2AR,,0.00000
IM5 2AS,,0.00000
IM5 2RR,,0.00000
IM5 3AB,,0.00000
IM5 3AD,,0.00000
IM5 3AE,,0.00000
IM5 3AF,,0.00000
IM5 3AG,,0.00000
IM5 3AH,,0.00000
IM5 3AJ,,0.00000
IM5 3AL,,0.00000
IM5 3AN,,0.00000
IM5 3AP,,0.00000
IM5 3AQ,,0.00000
IM5 3AR,,0.00000
IM5 3AS,,0.00000
IM5 3AT,,0.00000
IM5 3AU,,0.00000
IM5 3AW,,0.00000
IM5 3AX,,0.00000
IM5 3AY,,0.00000
IM5 3AZ,,0.00000
IM5 3BA,,0.00000
IM5 3BB,,0.00000
IM5 3BD,,0.00000
IM5 3BE,,0.00000
IM5 3BF,,0.00000
IM5 3BG,,0.00000
IM5 3BH,,0.00000
IM5 3BJ,,0.00000
IM5 3BL,,0.00000
IM5 3BN,,0.00000
IM5 3BP,,0.00000
IM5 3BQ,,0.00000
IM5 3BR,,0.00000
IM5 3BS,,0.00000
IM5 3BT,,0.00000
IM5 3BU,,0.00000
IM5 3BW,,0.00000
IM5 3BX,,0.00000
IM5 3BY,,0.00000
IM5 3BZ,,0.00000
IM5 3DA,,0.00000
IM6 1AB,,0.00000
IM6 1AD,,0.00000
IM6 1AE,,0.00000
IM6 1AF,,0.00000
IM6 1AG,,0.00000
IM6 1AH,,0.00000
IM6 1AJ,,0.00000
IM6 1AL,,0.00000
IM6 1AN,,0.00000
IM6 1AP,,0.00000
IM6 1AQ,,0.00000
IM6 1AR,,0.00000
IM6 1AS,,0.00000
IM6 1AT,,0.00000
IM6 1AU,,0.00000
IM6 1AW,,0.00000
IM6 1AX,,0.00000
IM6 1AY,,0.00000
IM6 1AZ,,0.00000
IM6 1BA,,0.00000
IM6 1BB,,0.00000
IM6 1BD,,0.00000
IM6 1BE,,0.00000
IM6 1EA,,0.00000
IM6 1EB,,0.00000
IM6 1ED,,0.00000
IM6 1EE,,0.00000
IM6 1EF,,0.00000
IM6 1EG,,0.00000
IM6 1EH,,0.00000
IM6 1EJ,,0.00000
IM6 1EL,,0.00000
IM6 1EN,,0.00000
IM6 1EP,,0.00000
IM6 1EQ,,0.00000
IM6 1ER,,0.00000
IM6 1ES,,0.00000
IM6 1ET,,0.00000
IM6 1EU,,0.00000
IM6 1EW,,0.00000
IM6 1EX,,0.00000
IM6 1EY,,0.00000
IM6 1EZ,,0.00000
IM6 1FA,,0.00000
IM6 1HA,,0.00000
IM6 1HB,,0.00000
IM6 1HD,,0.00000
IM6 1HE,,0.00000
IM6 1HF,,0.00000
IM6 1HG,,0.00000
IM6 1HH,,0.00000
IM6 1HJ,,0.00000
IM6 1HL,,0.00000
IM6 1HN,,0.00000
IM6 1HP,,0.00000
IM6 1HQ,,0.00000
IM6 1HR,,0.00000
IM6 1HS,,0.00000
IM6 1HT,,0.00000
IM6 1HU,,0.00000
IM6 1HW,,0.00000
IM6 1SS,,0.00000
IM6 2EY,,0.00000
IM6 2EZ,,0.00000
IM6 2HA,,0.00000
IM6 2HB,,0.00000
IM6 2HD,,0.00000
IM6 2HE,,0.00000
IM6 2HF,,0.00000
IM6 2HG,,0.00000
IM6 2HH,,0.00000
IM6 2HJ,,0.00000
IM6 2HL,,0.00000
IM6 2HN,,0.00000
IM6 2HP,,0.00000
IM6 2HR,,0.00000
IM6 2HS,,0.00000
IM6 2HT,,0.00000
IM6 2HU,,0.00000
IM6 2HW,,0.00000
IM7 1AB,,0.00000
IM7 1AD,,0.00000
IM7 1AF,,0.00000
IM7 1AG,,0.00000
IM7 1AH,,0.00000
IM7 1AJ,,0.00000
IM7 1AL,,0.00000
IM7 1AN,,0.00000
IM7 1AP,,0.00000
IM7 1AQ,,0.00000
IM7 1AR,,0.00000
IM7 1AS,,0.00000
IM7 1AT,,0.00000
IM7 1AU,,0.00000
IM7 1AW,,0.00000
IM7 1AX,,0.00000
IM7 1AY,,0.00000
IM7 1AZ,,0.00000
IM7 1BA,,0.00000
IM7 1BB,,0.00000
IM7 1BD,,0.00000
IM7 1BE,,0.00000
IM7 1BF,,0.00000
IM7 1BG,,0.00000
IM7 1BH,,0.00000
IM7 1BJ,,0.00000
IM7 1BL,,0.00000
IM7 1BN,,0.00000
IM7 1EA,,0.00000
IM7 1EB,,0.00000
IM7 1ED,,0.00000
IM7 1EE,,0.00000
IM7 1EF,,0.00000
IM7 1EG,,0.00000
IM7 1EH,,0.00000
IM7 1EJ,,0.00000
IM7 1EL,,0.00000
IM7 1EN,,0.00000
IM7 1EP,,0.00000
IM7 1EQ,,0.00000
IM7 1ER,,0.00000
IM7 1ES,,0.00000
IM7 1ET,,0.00000
IM7 1EU,,0.00000
IM7 1EW,,0.00000
IM7 1EX,,0.00000
IM7 1EY,,0.00000
IM7 1EZ,,0.00000
IM7 1HA,,0.00000
IM7 1HB,,0.00000
IM7 1HD,,0.00000
IM7 1HE,,0.00000
IM7 1HF,,0.00000
IM7 1HG,,0.00000
IM7 1HH,,0.00000
IM7 1HJ,,0.00000
IM7 1HL,,0.00000
IM7 1HN,,0.00000
IM7 1HP,,0.00000
IM7 1HQ,,0.00000
IM7 1HR,,0.00000
IM7 1HS,,0.00000
IM7 2AB,,0.00000
IM7 2AD,,0.00000
IM7 2AE,,0.00000
IM7 2AF,,0.00000
IM7 2AG,,0.00000
IM7 2AH,,0.00000
IM7 2AJ,,0.00000
IM7 2AL,,0.00000
IM7 2AN,,0.00000
IM7 2AP,,0.00000
IM7 2AQ,,0.00000
IM7 2AR,,0.00000
IM7 2AS,,0.00000
IM7 2AT,,0.00000
IM7 2AU,,0.00000
IM7 2AW,,0.00000
IM7 2AX,,0.00000
IM7 2AY,,0.00000
IM7 2AZ,,0.00000
IM7 2BA,,0.00000
IM7 2BB,,0.00000
IM7 2BD,,0.00000
IM7 2BE,,0.00000
IM7 2BF,,0.00000
IM7 2BH,,0.00000
IM7 2DZ,,0.00000
IM7 2EA,,0.00000
IM7 2EB,,0.00000
IM7 2ED,,0.00000
IM7 2EE,,0.00000
IM7 2EF,,0.00000
IM7 2EG,,0.00000
IM7 2EH,,0.00000
IM7 2EJ,,0.00000
IM7 2EL,,0.00000
IM7 2EN,,0.00000
IM7 2EP,,0.00000
IM7 2EQ,,0.00000
IM7 2ER,,0.00000
IM7 2ES,,0.00000
IM7 2ET,,0.00000
IM7 2EU,,0.00000
IM7 2EW,,0.00000
IM7 2EX,,0.00000
IM7 2EY,,0.00000
IM7 2EZ,,0.00000
IM7 2HA,,0.00000
IM7 2HB,,0.00000
IM7 2HD,,0.00000
IM7 2HE,,0.00000
IM7 2HF,,0.00000
IM7 2HG,,0.00000
IM7 2HH,,0.00000
IM7 2HJ,,0.00000
IM7 2HL,,0.00000
IM7 2HN,,0.00000
IM7 2HP,,0.00000
IM7 2HQ,,0.00000
IM7 2HR,,0.00000
IM7 2HS,,0.00000
IM7 2HT,,0.00000
IM7 3AB,,0.00000
IM7 3AD,,0.00000
IM7 3AE,,0.00000
IM7 3AF,,0.00000
IM7 3AG,,0.00000
IM7 3AH,,0.00000
IM7 3AJ,,0.00000
IM7 3AL,,0.00000
IM7 3AN,,0.00000
IM7 3AP,,0.00000
IM7 3AQ,,0.00000
IM7 3AR,,0.00000
IM7 3AS,,0.00000
IM7 3AT,,0.00000
IM7 3AU,,0.00000
IM7 3AW,,0.00000
IM7 3AX,,0.00000
IM7 3AY,,0.00000
IM7 3AZ,,0.00000
IM7 3BA,,0.00000
IM7 3BB,,0.00000
IM7 3BD,,0.00000
IM7 3BE,,0.00000
IM7 3BF,,0.00000
IM7 3BG,,0.00000
IM7 3BH,,0.00000
IM7 3BJ,,0.00000
IM7 3BL,,0.00000
IM7 3BN,,0.00000
IM7 3BP,,0.00000
IM7 3BQ,,0.00000
IM7 3BR,,0.00000
IM7 3BS,,0.00000
IM7 3BT,,0.00000
IM7 3BU,,0.00000
IM7 3BW,,0.00000
IM7 3BX,,0.00000
IM7 3BY,,0.00000
IM7 3BZ,,0.00000
IM7 3DA,,0.00000
IM7 3EA,,0.00000
IM7 3EB,,0.00000
IM7 3ED,,0.00000
IM7 3EE,,0.00000
IM7 3EF,,0.00000
IM7 3EG,,0.00000
IM7 3EH,,0.00000
IM7 3EJ,,0.00000
IM7 3EL,,0.00000
IM7 3EN,,0.00000
IM7 3EP,,0.00000
IM7 3EQ,,0.00000
IM7 3ER,,0.00000
IM7 3ES,,0.00000
IM7 3ET,,0.00000
IM7 3EU,,0.00000
IM7 3EW,,0.00000
IM7 3EX,,0.00000
IM7 3EY,,0.00000
IM7 3EZ,,0.00000
IM7 3HA,,0.00000
IM7 3HB,,0.00000
IM7 3HD,,0.00000
IM7 3HE,,0.00000
IM7 3HF,,0.00000
IM7 3HG,,0.00000
IM7 3HH,,0.00000
IM7 3HJ,,0.00000
IM7 3HL,,0.00000
IM7 3HN,,0.00000
IM7 3HP,,0.00000
IM7 3JP,,0.00000
IM7 4AB,,0.00000
IM7 4AD,,0.00000
IM7 4AE,,0.00000
IM7 4AF,,0.00000
IM7 4AG,,0.00000
IM7 4AH,,0.00000
IM7 4AJ,,0.00000
IM7 4AL,,0.00000
IM7 4AN,,0.00000
IM7 4AP,,0.00000
IM7 4AQ,,0.00000
IM7 4AR,,0.00000
IM7 4AS,,0.00000
IM7 4AT,,0.00000
IM7 4AU,,0.00000
IM7 4AW,,0.00000
IM7 4AX,,0.00000
IM7 4AY,,0.00000
IM7 4AZ,,0.00000
IM7 4BA,,0.00000
IM7 4BB,,0.00000
IM7 4BD,,0.00000
IM7 4BE,,0.00000
IM7 4BF,,0.00000
IM7 4BG,,0.00000
IM7 4BH,,0.00000
IM7 4BJ,,0.00000
IM7 4BL,,0.00000
IM7 4BN,,0.00000
IM7 4BP,,0.00000
IM7 4BQ,,0.00000
IM7 4BR,,0.00000
IM7 4BS,,0.00000
IM7 4EA,,0.00000
IM7 4EB,,0.00000
IM7 4ED,,0.00000
IM7 4EE,,0.00000
IM7 4EF,,0.00000
IM7 4EG,,0.00000
IM7 4EH,,0.00000
IM7 4EJ,,0.00000
IM7 4EL,,0.00000
IM7 4EN,,0.00000
IM7 4EP,,0.00000
IM7 4EQ,,0.00000
IM7 4ER,,0.00000
IM7 4ES,,0.00000
IM7 4ET,,0.00000
IM7 4EU,,0.00000
IM7 4EW,,0.00000
IM7 4EX,,0.00000
IM7 4EY,,0.00000
IM7 4EZ,,0.00000
IM7 4FA,,0.00000
IM7 4HA,,0.00000
IM7 4HB,,0.00000
IM7 4HD,,0.00000
IM7 4HE,,0.00000
IM7 4HF,,0.00000
IM7 4HG,,0.00000
IM7 4HH,,0.00000
IM7 4HJ,,0.00000
IM7 4HL,,0.00000
IM7 4HN,,0.00000
IM7 4HP,,0.00000
IM7 4HQ,,0.00000
IM7 4HR,,0.00000
IM7 4HS,,0.00000
IM7 4HT,,0.00000
IM7 4HU,,0.00000
IM7 4HW,,0.00000
IM7 4HX,,0.00000
IM7 4HY,,0.00000
IM7 4HZ,,0.00000
IM7 4JA,,0.00000
IM7 4JB,,0.00000
IM7 4JD,,0.00000
IM7 4JE,,0.00000
IM7 4JF,,0.00000
IM7 4JG,,0.00000
IM7 5AB,,0.00000
IM7 5AD,,0.00000
IM7 5AE,,0.00000
IM7 5AF,,0.00000
IM7 5AG,,0.00000
IM7 5AH,,0.00000
IM7 5AJ,,0.00000
IM7 5AL,,0.00000
IM7 5AN,,0.00000
IM7 5AP,,0.00000
IM7 5AQ,,0.00000
IM7 5AR,,0.00000
IM7 5AS,,0.00000
IM7 5AT,,0.00000
IM7 5AU,,0.00000
IM7 5AW,,0.00000
IM7 5AX,,0.00000
IM7 5AY,,0.00000
IM7 5AZ,,0.00000
IM7 5BA,,0.00000
IM7 5BB,,0.00000
IM7 5BD,,0.00000
IM7 5BE,,0.00000
IM7 5BF,,0.00000
IM7 5BG,,0.00000
IM7 5BH,,0.00000
IM7 5BJ,,0.00000
IM7 5BL,,0.00000
IM7 5BN,,0.00000
IM7 5BP,,0.00000
IM7 5BR,,0.00000
IM7 5BW,,0.00000
IM7 5BX,,0.00000
IM7 5BY,,0.00000
IM7 5EA,,0.00000
IM7 5EB,,0.00000
IM7 5ED,,0.00000
IM7 5EE,,0.00000
IM7 5EF,,0.00000
IM7 5EG,,0.00000
IM7 5EH,,0.00000
IM7 5EJ,,0.00000
IM7 5EL,,0.00000
IM7 5EN,,0.00000
IM7 5EP,,0.00000
IM7 5EQ,,0.00000
IM7 5ER,,0.00000
IM7 5ES,,0.00000
IM7 5ET,,0.00000
IM7 5EU,,0.00000
IM7 5EW,,0.00000
IM7 5EX,,0.00000
IM7 5EY,,0.00000
IM7 5EZ,,0.00000
IM7 5JA,,0.00000
IM7 5JB,,0.00000
IM7 5JD,,0.00000
IM7 5JE,,0.00000
IM7 5JF,,0.00000
IM7 5JG,,0.00000
IM8 1AA,,0.00000
IM8 1AB,,0.00000
IM8 1AD,,0.00000
IM8 1AE,,0.00000
IM8 1AF,,0.00000
IM8 1AG,,0.00000
IM8 1AH,,0.00000
IM8 1AJ,,0.00000
IM8 1AL,,0.00000
IM8 1AN,,0.00000
IM8 1AP,,0.00000
IM8 1AQ,,0.00000
IM8 1AR,,0.00000
IM8 1AS,,0.00000
IM8 1AT,,0.00000
IM8 1AU,,0.00000
IM8 1AW,,0.00000
IM8 1AX,,0.00000
IM8 1AY,,0.00000
IM8 1AZ,,0.00000
IM8 1BA,,0.00000
IM8 1BB,,0.00000
IM8 1BD,,0.00000
IM8 1BE,,0.00000
IM8 1BF,,0.00000
IM8 1BG,,0.00000
IM8 1BH,,0.00000
IM8 1BJ,,0.00000
IM8 1BL,,0.00000
IM8 1DA,,0.00000
IM8 1DB,,0.00000
IM8 1DD,,0.00000
IM8 1DE,,0.00000
IM8 1DF,,0.00000
IM8 1DG,,0.00000
IM8 1DH,,0.00000
IM8 1DJ,,0.00000
IM8 1DL,,0.00000
IM8 1DN,,0.00000
IM8 1DP,,0.00000
IM8 1DQ,,0.00000
IM8 1DR,,0.00000
IM8 1DS,,0.00000
IM8 1DT,,0.00000
IM8 1DU,,0.00000
IM8 1DW,,0.00000
IM8 1DX,,0.00000
IM8 1DY,,0.00000
IM8 1DZ,,0.00000
IM8 1EA,,0.00000
IM8 1EB,,0.00000
IM8 1ED,,0.00000
IM8 1EE,,0.00000
IM8 1EF,,0.00000
IM8 1EG,,0.00000
IM8 1EH,,0.00000
IM8 1EJ,,0.00000
IM8 1EL,,0.00000
IM8 1EN,,0.00000
IM8 1EP,,0.00000
IM8 1EQ,,0.00000
IM8 1ER,,0.00000
IM8 1ES,,0.00000
IM8 1ET,,0.00000
IM8 1EU,,0.00000
IM8 1EW,,0.00000
IM8 1FF,,0.00000
IM8 1GB,,0.00000
IM8 1GP,,0.00000
IM8 1JA,,0.00000
IM8 1JB,,0.00000
IM8 1JD,,0.00000
IM8 1JE,,0.00000
IM8 1JF,,0.00000
IM8 1JG,,0.00000
IM8 1JH,,0.00000
IM8 1JJ,,0.00000
IM8 1JL,,0.00000
IM8 1JN,,0.00000
IM8 1JP,,0.00000
IM8 1JQ,,0.00000
IM8 1JR,,0.00000
IM8 1JS,,0.00000
IM8 1JT,,0.00000
IM8 1JU,,0.00000
IM8 1JW,,0.00000
IM8 1JX,,0.00000
IM8 1JY,,0.00000
IM8 1LA,,0.00000
IM8 1LB,,0.00000
IM8 1LD,,0.00000
IM8 1LE,,0.00000
IM8 1LF,,0.00000
IM8 1LG,,0.00000
IM8 1LH,,0.00000
IM8 1LJ,,0.00000
IM8 1LL,,0.00000
IM8 1LN,,0.00000
IM8 1LP,,0.00000
IM8 1LQ,,0.00000
IM8 1LR,,0.00000
IM8 1LS,,0.00000
IM8 1LT,,0.00000
IM8 1LU,,0.00000
IM8 1LW,,0.00000
IM8 1LX,,0.00000
IM8 1LY,,0.00000
IM8 1NA,,0.00000
IM8 1NB,,0.00000
IM8 1ND,,0.00000
IM8 1NE,,0.00000
IM8 1NF,,0.00000
IM8 1NG,,0.00000
IM8 1NL,,0.00000
IM8 1NN,,0.00000
IM8 1NP,,0.00000
IM8 1RB,,0.00000
IM8 1RD,,0.00000
IM8 1RE,,0.00000
IM8 1RF,,0.00000
IM8 1RG,,0.00000
IM8 1RT,,0.00000
IM8 2AA,,0.00000
IM8 2AB,,0.00000
IM8 2AD,,0.00000
IM8 2AE,,0.00000
IM8 2AF,,0.00000
IM8 2AG,,0.00000
IM8 2AH,,0.00000
IM8 2AJ,,0.00000
IM8 2AL,,0.00000
IM8 2AN,,0.00000
IM8 2AP,,0.00000
IM8 2AQ,,0.00000
IM8 2AR,,0.00000
IM8 2AS,,0.00000
IM8 2AT,,0.00000
IM8 2AU,,0.00000
IM8 2AW,,0.00000
IM8 2AX,,0.00000
IM8 2AY,,0.00000
IM8 2AZ,,0.00000
IM8 2BA,,0.00000
IM8 2BB,,0.00000
IM8 2BD,,0.00000
IM8 2BE,,0.00000
IM8 2BF,,0.00000
IM8 2BG,,0.00000
IM8 2BH,,0.00000
IM8 2BJ,,0.00000
IM8 2BL,,0.00000
IM8 2BN,,0.00000
IM8 2BP,,0.00000
IM8 2BQ,,0.00000
IM8 2BR,,0.00000
IM8 2BS,,0.00000
IM8 2BT,,0.00000
IM8 2BW,,0.00000
IM8 2EA,,0.00000
IM8 2EB,,0.00000
IM8 2ED,,0.00000
IM8 2EE,,0.00000
IM8 2EF,,0.00000
IM8 2EG,,0.00000
IM8 2EH,,0.00000
IM8 2EJ,,0.00000
IM8 2EL,,0.00000
IM8 2EN,,0.00000
IM8 2EP,,0.00000
IM8 2EQ,,0.00000
IM8 2ER,,0.00000
IM8 2ES,,0.00000
IM8 2ET,,0.00000
IM8 2EU,,0.00000
IM8 2EW,,0.00000
IM8 2EX,,0.00000
IM8 2EY,,0.00000
IM8 2EZ,,0.00000
IM8 2FA,,0.00000
IM8 2GB,,0.00000
IM8 2HA,,0.00000
IM8 2HB,,0.00000
IM8 2HD,,0.00000
IM8 2HE,,0.00000
IM8 2HF,,0.00000
IM8 2HG,,0.00000
IM8 2HH,,0.00000
IM8 2HJ,,0.00000
IM8 2HL,,0.00000
IM8 2HN,,0.00000
IM8 2HP,,0.00000
IM8 2HQ,,0.00000
IM8 2HR,,0.00000
IM8 2HS,,0.00000
IM8 2HT,,0.00000
IM8 2HU,,0.00000
IM8 2HW,,0.00000
IM8 2HX,,0.00000
IM8 2HY,,0.00000
IM8 2HZ,,0.00000
IM8 2JA,,0.00000
IM8 2JB,,0.00000
IM8 2JD,,0.00000
IM8 2JE,,0.00000
IM8 2JF,,0.00000
IM8 2JG,,0.00000
IM8 2JH,,0.00000
IM8 2JJ,,0.00000
IM8 2JL,,0.00000
IM8 2JN,,0.00000
IM8 2JP,,0.00000
IM8 2JQ,,0.00000
IM8 2JR,,0.00000
IM8 2JS,,0.00000
IM8 2JU,,0.00000
IM8 2JW,,0.00000
IM8 2LA,,0.00000
IM8 2LB,,0.00000
IM8 2LD,,0.00000
IM8 2LE,,0.00000
IM8 2LF,,0.00000
IM8 2LG,,0.00000
IM8 2LH,,0.00000
IM8 2LJ,,0.00000
IM8 2LL,,0.00000
IM8 2LN,,0.00000
IM8 2LP,,0.00000
IM8 2LQ,,0.00000
IM8 2LR,,0.00000
IM8 2LS,,0.00000
IM8 2LT,,0.00000
IM8 2LU,,0.00000
IM8 2LW,,0.00000
IM8 2LX,,0.00000
IM8 2LY,,0.00000
IM8 2LZ,,0.00000
IM8 2NA,,0.00000
IM8 2NB,,0.00000
IM8 2ND,,0.00000
IM8 2NE,,0.00000
IM8 2NF,,0.00000
IM8 2NG,,0.00000
IM8 2NH,,0.00000
IM8 2NJ,,0.00000
IM8 2NL,,0.00000
IM8 2NN,,0.00000
IM8 2NP,,0.00000
IM8 2NQ,,0.00000
IM8 2NR,,0.00000
IM8 2NS,,0.00000
IM8 2NT,,0.00000
IM8 2NU,,0.00000
IM8 2NW,,0.00000
IM8 2NX,,0.00000
IM8 2NY,,0.00000
IM8 2NZ,,0.00000
IM8 2PA,,0.00000
IM8 2PB,,0.00000
IM8 2PD,,0.00000
IM8 2PE,,0.00000
IM8 2PF,,0.00000
IM8 2PG,,0.00000
IM8 2PH,,0.00000
IM8 2PJ,,0.00000
IM8 2PL,,0.00000
IM8 2PN,,0.00000
IM8 2PP,,0.00000
IM8 2PQ,,0.00000
IM8 2PR,,0.00000
IM8 2PS,,0.00000
IM8 2PT,,0.00000
IM8 2PU,,0.00000
IM8 2PW,,0.00000
IM8 2PX,,0.00000
IM8 2PY,,0.00000
IM8 2QA,,0.00000
IM8 2QB,,0.00000
IM8 2QD,,0.00000
IM8 2QE,,0.00000
IM8 2RE,,0.00000
IM8 2RG,,0.00000
IM8 2TA,,0.00000
IM8 2TB,,0.00000
IM8 2TD,,0.00000
IM8 2TE,,0.00000
IM8 2TF,,0.00000
IM8 2TG,,0.00000
IM8 2TH,,0.00000
IM8 2TJ,,0.00000
IM8 2TL,,0.00000
IM8 2TN,,0.00000
IM8 2TP,,0.00000
IM8 2TQ,,0.00000
IM8 2TR,,0.00000
IM8 2TS,,0.00000
IM8 2TT,,0.00000
IM8 2TU,,0.00000
IM8 2TX,,0.00000
IM8 3AB,,0.00000
IM8 3AD,,0.00000
IM8 3AG,,0.00000
IM8 3AH,,0.00000
IM8 3AJ,,0.00000
IM8 3AL,,0.00000
IM8 3AN,,0.00000
IM8 3AP,,0.00000
IM8 3AQ,,0.00000
IM8 3AR,,0.00000
IM8 3AS,,0.00000
IM8 3AU,,0.00000
IM8 3AW,,0.00000
IM8 3AX,,0.00000
IM8 3AY,,0.00000
IM8 3AZ,,0.00000
IM8 3BA,,0.00000
IM8 3BD,,0.00000
IM8 3BE,,0.00000
IM8 3DA,,0.00000
IM8 3DB,,0.00000
IM8 3DE,,0.00000
IM8 3DF,,0.00000
IM8 3DG,,0.00000
IM8 3DH,,0.00000
IM8 3DJ,,0.00000
IM8 3DL,,0.00000
IM8 3DN,,0.00000
IM8 3DP,,0.00000
IM8 3DQ,,0.00000
IM8 3DR,,0.00000
IM8 3DS,,0.00000
IM8 3DT,,0.00000
IM8 3DU,,0.00000
IM8 3DW,,0.00000
IM8 3DX,,0.00000
IM8 3DY,,0.00000
IM8 3DZ,,0.00000
IM8 3EA,,0.00000
IM8 3EB,,0.00000
IM8 3ED,,0.00000
IM8 3EE,,0.00000
IM8 3EF,,0.00000
IM8 3EG,,0.00000
IM8 3EH,,0.00000
IM8 3EJ,,0.00000
IM8 3EL,,0.00000
IM8 3EN,,0.00000
IM8 3EP,,0.00000
IM8 3EQ,,0.00000
IM8 3ER,,0.00000
IM8 3ES,,0.00000
IM8 3EU,,0.00000
IM8 3EW,,0.00000
IM8 3EY,,0.00000
IM8 3EZ,,0.00000
IM8 3HA,,0.00000
IM8 3HB,,0.00000
IM8 3HE,,0.00000
IM8 3HF,,0.00000
IM8 3HG,,0.00000
IM8 3HH,,0.00000
IM8 3HJ,,0.00000
IM8 3HL,,0.00000
IM8 3HN,,0.00000
IM8 3HP,,0.00000
IM8 3HQ,,0.00000
IM8 3HR,,0.00000
IM8 3HS,,0.00000
IM8 3HT,,0.00000
IM8 3LA,,0.00000
IM8 3LB,,0.00000
IM8 3LD,,0.00000
IM8 3LE,,0.00000
IM8 3LF,,0.00000
IM8 3LG,,0.00000
IM8 3LH,,0.00000
IM8 3LJ,,0.00000
IM8 3LL,,0.00000
IM8 3LN,,0.00000
IM8 3LP,,0.00000
IM8 3LQ,,0.00000
IM8 3LR,,0.00000
IM8 3LS,,0.00000
IM8 3LT,,0.00000
IM8 3LW,,0.00000
IM8 3NA,,0.00000
IM8 3NB,,0.00000
IM8 3ND,,0.00000
IM8 3NE,,0.00000
IM8 3NF,,0.00000
IM8 3NG,,0.00000
IM8 3NH,,0.00000
IM8 3NJ,,0.00000
IM8 3NL,,0.00000
IM8 3NN,,0.00000
IM8 3NP,,0.00000
IM8 3NQ,,0.00000
IM8 3NR,,0.00000
IM8 3NS,,0.00000
IM8 3NT,,0.00000
IM8 3NU,,0.00000
IM8 3NW,,0.00000
IM8 3NX,,0.00000
IM8 3NY,,0.00000
IM8 3NZ,,0.00000
IM8 3PA,,0.00000
IM8 3PB,,0.00000
IM8 3PD,,0.00000
IM8 3PE,,0.00000
IM8 3PF,,0.00000
IM8 3PG,,0.00000
IM8 3PH,,0.00000
IM8 3PJ,,0.00000
IM8 3PL,,0.00000
IM8 3PN,,0.00000
IM8 3PP,,0.00000
IM8 3PQ,,0.00000
IM8 3PR,,0.00000
IM8 3PS,,0.00000
IM8 3PT,,0.00000
IM8 3PU,,0.00000
IM8 3PW,,0.00000
IM8 3PX,,0.00000
IM8 3PY,,0.00000
IM8 3PZ,,0.00000
IM8 3RH,,0.00000
IM8 3TA,,0.00000
IM8 3TB,,0.00000
IM8 3TD,,0.00000
IM8 3UA,,0.00000
IM8 3UB,,0.00000
IM8 3UD,,0.00000
IM8 3UE,,0.00000
IM8 3UF,,0.00000
IM8 3UG,,0.00000
IM8 3UH,,0.00000
IM8 3UJ,,0.00000
IM8 3UL,,0.00000
IM8 3UN,,0.00000
IM8 3UP,,0.00000
IM8 3UQ,,0.00000
IM861ED,,0.00000
IM861SG,,0.00000
IM861YL,,0.00000
IM862XQ,,0.00000
IM9 1AB,,0.00000
IM9 1AD,,0.00000
IM9 1AE,,0.00000
IM9 1AF,,0.00000
IM9 1AG,,0.00000
IM9 1AH,,0.00000
IM9 1AJ,,0.00000
IM9 1AL,,0.00000
IM9 1AN,,0.00000
IM9 1AP,,0.00000
IM9 1AQ,,0.00000
IM9 1AR,,0.00000
IM9 1AS,,0.00000
IM9 1AT,,0.00000
IM9 1AU,,0.00000
IM9 1AW,,0.00000
IM9 1AX,,0.00000
IM9 1AY,,0.00000
IM9 1AZ,,0.00000
IM9 1BA,,0.00000
IM9 1BB,,0.00000
IM9 1BD,,0.00000
IM9 1BE,,0.00000
IM9 1BF,,0.00000
IM9 1BG,,0.00000
IM9 1BH,,0.00000
IM9 1BJ,,0.00000
IM9 1BL,,0.00000
IM9 1BN,,0.00000
IM9 1BP,,0.00000
IM9 1BQ,,0.00000
IM9 1BR,,0.00000
IM9 1BS,,0.00000
IM9 1BT,,0.00000
IM9 1BU,,0.00000
IM9 1BW,,0.00000
IM9 1BX,,0.00000
IM9 1BY,,0.00000
IM9 1BZ,,0.00000
IM9 1DA,,0.00000
IM9 1DB,,0.00000
IM9 1DD,,0.00000
IM9 1DE,,0.00000
IM9 1DF,,0.00000
IM9 1DG,,0.00000
IM9 1DH,,0.00000
IM9 1DJ,,0.00000
IM9 1DL,,0.00000
IM9 1DN,,0.00000
IM9 1DP,,0.00000
IM9 1DQ,,0.00000
IM9 1DR,,0.00000
IM9 1DS,,0.00000
IM9 1DT,,0.00000
IM9 1DW,,0.00000
IM9 1DX,,0.00000
IM9 1EA,,0.00000
IM9 1EB,,0.00000
IM9 1ED,,0.00000
IM9 1EE,,0.00000
IM9 1EF,,0.00000
IM9 1EG,,0.00000
IM9 1EH,,0.00000
IM9 1EJ,,0.00000
IM9 1EL,,0.00000
IM9 1EN,,0.00000
IM9 1EP,,0.00000
IM9 1EQ,,0.00000
IM9 1ER,,0.00000
IM9 1ES,,0.00000
IM9 1ET,,0.00000
IM9 1EU,,0.00000
IM9 1EW,,0.00000
IM9 1EX,,0.00000
IM9 1HA,,0.00000
IM9 1HB,,0.00000
IM9 1HD,,0.00000
IM9 1HE,,0.00000
IM9 1HF,,0.00000
IM9 1HG,,0.00000
IM9 1HH,,0.00000
IM9 1HJ,,0.00000
IM9 1HL,,0.00000
IM9 1HN,,0.00000
IM9 1HP,,0.00000
IM9 1HQ,,0.00000
IM9 1HR,,0.00000
IM9 1HS,,0.00000
IM9 1HT,,0.00000
IM9 1HU,,0.00000
IM9 1HW,,0.00000
IM9 1HX,,0.00000
IM9 1HY,,0.00000
IM9 1HZ,,0.00000
IM9 1LA,,0.00000
IM9 1LB,,0.00000
IM9 1LD,,0.00000
IM9 1LE,,0.00000
IM9 1LF,,0.00000
IM9 1LG,,0.00000
IM9 1LH,,0.00000
IM9 1LJ,,0.00000
IM9 1LL,,0.00000
IM9 1LN,,0.00000
IM9 1LP,,0.00000
IM9 1LQ,,0.00000
IM9 1LR,,0.00000
IM9 1LS,,0.00000
IM9 1LT,,0.00000
IM9 1LU,,0.00000
IM9 1LW,,0.00000
IM9 1LX,,0.00000
IM9 1LY,,0.00000
IM9 1LZ,,0.00000
IM9 1NA,,0.00000
IM9 1NB,,0.00000
IM9 1ND,,0.00000
IM9 1NE,,0.00000
IM9 1NF,,0.00000
IM9 1NG,,0.00000
IM9 1NH,,0.00000
IM9 1NJ,,0.00000
IM9 1NL,,0.00000
IM9 1NN,,0.00000
IM9 1NP,,0.00000
IM9 1NQ,,0.00000
IM9 1NR,,0.00000
IM9 1NS,,0.00000
IM9 1NT,,0.00000
IM9 1NU,,0.00000
IM9 1NW,,0.00000
IM9 1NX,,0.00000
IM9 1NY,,0.00000
IM9 1NZ,,0.00000
IM9 1PA,,0.00000
IM9 1PB,,0.00000
IM9 1PD,,0.00000
IM9 1PE,,0.00000
IM9 1PN,,0.00000
IM9 1RA,,0.00000
IM9 1RB,,0.00000
IM9 1RD,,0.00000
IM9 1RE,,0.00000
IM9 1RJ,,0.00000
IM9 1TA,,0.00000
IM9 1TB,,0.00000
IM9 1TD,,0.00000
IM9 1TE,,0.00000
IM9 1TF,,0.00000
IM9 1TG,,0.00000
IM9 1TH,,0.00000
IM9 1TJ,,0.00000
IM9 1TL,,0.00000
IM9 1TN,,0.00000
IM9 1TP,,0.00000
IM9 1TQ,,0.00000
IM9 1TR,,0.00000
IM9 1TS,,0.00000
IM9 1TU,,0.00000
IM9 1TX,,0.00000
IM9 1TY,,0.00000
IM9 1TZ,,0.00000
IM9 1UA,,0.00000
IM9 1UB,,0.00000
IM9 1UD,,0.00000
IM9 1UE,,0.00000
IM9 2AA,,0.00000
IM9 2AB,,0.00000
IM9 2AD,,0.00000
IM9 2AE,,0.00000
IM9 2AF,,0.00000
IM9 2AG,,0.00000
IM9 2AH,,0.00000
IM9 2AJ,,0.00000
IM9 2AL,,0.00000
IM9 2AN,,0.00000
IM9 2AP,,0.00000
IM9 2AQ,,0.00000
IM9 2AR,,0.00000
IM9 2AS,,0.00000
IM9 2AT,,0.00000
IM9 2AU,,0.00000
IM9 2AW,,0.00000
IM9 2AX,,0.00000
IM9 2AY,,0.00000
IM9 2AZ,,0.00000
IM9 2BA,,0.00000
IM9 2BB,,0.00000
IM9 2BD,,0.00000
IM9 2BF,,0.00000
IM9 2BG,,0.00000
IM9 2DA,,0.00000
IM9 2DB,,0.00000
IM9 2DD,,0.00000
IM9 2DE,,0.00000
IM9 2DF,,0.00000
IM9 2DG,,0.00000
IM9 2DH,,0.00000
IM9 2DJ,,0.00000
IM9 2DL,,0.00000
IM9 2DN,,0.00000
IM9 2DP,,0.00000
IM9 2DQ,,0.00000
IM9 2DR,,0.00000
IM9 2DS,,0.00000
IM9 2DT,,0.00000
IM9 2DU,,0.00000
IM9 2DW,,0.00000
IM9 2DX,,0.00000
IM9 2DY,,0.00000
IM9 2DZ,,0.00000
IM9 2EA,,0.00000
IM9 2EB,,0.00000
IM9 2ED,,0.00000
IM9 2EE,,0.00000
IM9 2EF,,0.00000
IM9 2EG,,0.00000
IM9 2EH,,0.00000
IM9 2EJ,,0.00000
IM9 2EL,,0.00000
IM9 2EN,,0.00000
IM9 2EP,,0.00000
IM9 2EQ,,0.00000
IM9 2ER,,0.00000
IM9 2ES,,0.00000
IM9 2ET,,0.00000
IM9 2EU,,0.00000
IM9 2EW,,0.00000
IM9 2EX,,0.00000
IM9 2EY,,0.00000
IM9 2EZ,,0.00000
IM9 2FA,,0.00000
IM9 2HA,,0.00000
IM9 2HB,,0.00000
IM9 2HD,,0.00000
IM9 2HE,,0.00000
IM9 2HF,,0.00000
IM9 2HG,,0.00000
IM9 2HH,,0.00000
IM9 2HJ,,0.00000
IM9 2HL,,0.00000
IM9 2HN,,0.00000
IM9 2HP,,0.00000
IM9 2HQ,,0.00000
IM9 2HR,,0.00000
IM9 2HS,,0.00000
IM9 2HT,,0.00000
IM9 2HU,,0.00000
IM9 2HW,,0.00000
IM9 2JE,,0.00000
IM9 2LA,,0.00000
IM9 2LB,,0.00000
IM9 2RA,,0.00000
IM9 2RB,,0.00000
IM9 2RD,,0.00000
IM9 2RE,,0.00000
IM9 2RF,,0.00000
IM9 2RG,,0.00000
IM9 2RH,,0.00000
IM9 2RJ,,0.00000
IM9 2RP,,0.00000
IM9 2RQ,,0.00000
IM9 2RS,,0.00000
IM9 2RY,,0.00000
IM9 2SE,,0.00000
IM9 3AB,,0.00000
IM9 3AD,,0.00000
IM9 3AE,,0.00000
IM9 3AF,,0.00000
IM9 3AG,,0.00000
IM9 3AH,,0.00000
IM9 3AJ,,0.00000
IM9 3AL,,0.00000
IM9 3AN,,0.00000
IM9 3AP,,0.00000
IM9 3AQ,,0.00000
IM9 3AR,,0.00000
IM9 3AS,,0.00000
IM9 3AT,,0.00000
IM9 3AU,,0.00000
IM9 3AW,,0.00000
IM9 3AX,,0.00000
IM9 3AY,,0.00000
IM9 3AZ,,0.00000
IM9 3BA,,0.00000
IM9 3BB,,0.00000
IM9 3BD,,0.00000
IM9 3DA,,0.00000
IM9 3DB,,0.00000
IM9 3DD,,0.00000
IM9 3DE,,0.00000
IM9 3DF,,0.00000
IM9 3DG,,0.00000
IM9 3DH,,0.00000
IM9 3DJ,,0.00000
IM9 3DL,,0.00000
IM9 3DN,,0.00000
IM9 3DP,,0.00000
IM9 3DQ,,0.00000
IM9 3DR,,0.00000
IM9 3DS,,0.00000
IM9 3DT,,0.00000
IM9 3DU,,0.00000
IM9 3DW,,0.00000
IM9 3DX,,0.00000
IM9 3DY,,0.00000
IM9 3DZ,,0.00000
IM9 3EA,,0.00000
IM9 3EB,,0.00000
IM9 3ED,,0.00000
IM9 3EE,,0.00000
IM9 3EF,,0.00000
IM9 3EG,,0.00000
IM9 3EH,,0.00000
IM9 3EJ,,0.00000
IM9 3EL,,0.00000
IM9 3EN,,0.00000
IM9 3EP,,0.00000
IM9 3EQ,,0.00000
IM9 3ER,,0.00000
IM9 3ES,,0.00000
IM9 3ET,,0.00000
IM9 4AB,,0.00000
IM9 4AD,,0.00000
IM9 4AE,,0.00000
IM9 4AF,,0.00000
IM9 4AG,,0.00000
IM9 4AH,,0.00000
IM9 4AJ,,0.00000
IM9 4AL,,0.00000
IM9 4AN,,0.00000
IM9 4AP,,0.00000
IM9 4AQ,,0.00000
IM9 4AR,,0.00000
IM9 4AS,,0.00000
IM9 4AT,,0.00000
IM9 4AU,,0.00000
IM9 4AW,,0.00000
IM9 4AX,,0.00000
IM9 4AY,,0.00000
IM9 4AZ,,0.00000
IM9 4BA,,0.00000
IM9 4BB,,0.00000
IM9 4BD,,0.00000
IM9 4BE,,0.00000
IM9 4BF,,0.00000
IM9 4BG,,0.00000
IM9 4BH,,0.00000
IM9 4BJ,,0.00000
IM9 4BL,,0.00000
IM9 4BN,,0.00000
IM9 4BP,,0.00000
IM9 4BQ,,0.00000
IM9 4BR,,0.00000
IM9 4BS,,0.00000
IM9 4BT,,0.00000
IM9 4BU,,0.00000
IM9 4BW,,0.00000
IM9 4BX,,0.00000
IM9 4BY,,0.00000
IM9 4BZ,,0.00000
IM9 4DA,,0.00000
IM9 4DB,,0.00000
IM9 4DD,,0.00000
IM9 4DE,,0.00000
IM9 4EA,,0.00000
IM9 4EB,,0.00000
IM9 4ED,,0.00000
IM9 4EE,,0.00000
IM9 4EF,,0.00000
IM9 4EG,,0.00000
IM9 4EH,,0.00000
IM9 4EJ,,0.00000
IM9 4EL,,0.00000
IM9 4EN,,0.00000
IM9 4EP,,0.00000
IM9 4EQ,,0.00000
IM9 4ER,,0.00000
IM9 4ES,,0.00000
IM9 4ET,,0.00000
IM9 4EU,,0.00000
IM9 4EW,,0.00000
IM9 4EX,,0.00000
IM9 4EY,,0.00000
IM9 4EZ,,0.00000
IM9 4HA,,0.00000
IM9 4HB,,0.00000
IM9 4HD,,0.00000
IM9 4HE,,0.00000
IM9 4HF,,0.00000
IM9 4HG,,0.00000
IM9 4HH,,0.00000
IM9 4HJ,,0.00000
IM9 4HL,,0.00000
IM9 4HN,,0.00000
IM9 4HQ,,0.00000
IM9 4HR,,0.00000
IM9 4HW,,0.00000
IM9 4LA,,0.00000
IM9 4LB,,0.00000
IM9 4LD,,0.00000
IM9 4LE,,0.00000
IM9 4LF,,0.00000
IM9 4LG,,0.00000
IM9 4LH,,0.00000
IM9 4LJ,,0.00000
IM9 4LL,,0.00000
IM9 4LN,,0.00000
IM9 4LP,,0.00000
IM9 4LQ,,0.00000
IM9 4LR,,0.00000
IM9 4LS,,0.00000
IM9 4LT,,0.00000
IM9 4LU,,0.00000
IM9 4LW,,0.00000
IM9 4LX,,0.00000
IM9 4LY,,0.00000
IM9 4LZ,,0.00000
IM9 4NA,,0.00000
IM9 4NB,,0.00000
IM9 4ND,,0.00000
IM9 4NE,,0.00000
IM9 4NF,,0.00000
IM9 4NG,,0.00000
IM9 4NH,,0.00000
IM9 4NJ,,0.00000
IM9 4NL,,0.00000
IM9 4NN,,0.00000
IM9 4NP,,0.00000
IM9 4NQ,,0.00000
IM9 4NR,,0.00000
IM9 4NS,,0.00000
IM9 4NT,,0.00000
IM9 4NU,,0.00000
IM9 4NW,,0.00000
IM9 4NX,,0.00000
IM9 4NY,,0.00000
IM9 4NZ,,0.00000
IM9 4PA,,0.00000
IM9 4PB,,0.00000
IM9 4PD,,0.00000
IM9 4PE,,0.00000
IM9 4PF,,0.00000
IM9 4PG,,0.00000
IM9 4PH,,0.00000
IM9 4PJ,,0.00000
IM9 4PL,,0.00000
IM9 4PN,,0.00000
IM9 4PP,,0.00000
IM9 4PQ,,0.00000
IM9 4PR,,0.00000
IM9 4PS,,0.00000
IM9 5AB,,0.00000
IM9 5AD,,0.00000
IM9 5AE,,0.00000
IM9 5AF,,0.00000
IM9 5AG,,0.00000
IM9 5AH,,0.00000
IM9 5AJ,,0.00000
IM9 5AL,,0.00000
IM9 5AN,,0.00000
IM9 5AP,,0.00000
IM9 5AQ,,0.00000
IM9 5AR,,0.00000
IM9 5AS,,0.00000
IM9 5AT,,0.00000
IM9 5AU,,0.00000
IM9 5AW,,0.00000
IM9 5AX,,0.00000
IM9 5AY,,0.00000
IM9 5AZ,,0.00000
IM9 5BA,,0.00000
IM9 5BB,,0.00000
IM9 5BD,,0.00000
IM9 5BE,,0.00000
IM9 5BF,,0.00000
IM9 5BG,,0.00000
IM9 5BH,,0.00000
IM9 5BJ,,0.00000
IM9 5DA,,0.00000
IM9 5DB,,0.00000
IM9 5DE,,0.00000
IM9 5DF,,0.00000
IM9 5DG,,0.00000
IM9 5DN,,0.00000
IM9 5DP,,0.00000
IM9 5DR,,0.00000
IM9 5DS,,0.00000
IM9 5DT,,0.00000
IM9 5DU,,0.00000
IM9 5DW,,0.00000
IM9 5DX,,0.00000
IM9 5DY,,0.00000
IM9 5DZ,,0.00000
IM9 5EA,,0.00000
IM9 5EB,,0.00000
IM9 5ED,,0.00000
IM9 5EE,,0.00000
IM9 5EF,,0.00000
IM9 5EG,,0.00000
IM9 5EH,,0.00000
IM9 5EJ,,0.00000
IM9 5EL,,0.00000
IM9 5EN,,0.00000
IM9 5EP,,0.00000
IM9 5EQ,,0.00000
IM9 5ER,,0.00000
IM9 5ES,,0.00000
IM9 5ET,,0.00000
IM9 5EU,,0.00000
IM9 5EW,,0.00000
IM9 5EX,,0.00000
IM9 5EY,,0.00000
IM9 5EZ,,0.00000
IM9 5HA,,0.00000
IM9 5HB,,0.00000
IM9 5HD,,0.00000
IM9 5HE,,0.00000
IM9 5HF,,0.00000
IM9 5HG,,0.00000
IM9 5HH,,0.00000
IM9 5HJ,,0.00000
IM9 5HL,,0.00000
IM9 5HQ,,0.00000
IM9 5LA,,0.00000
IM9 5LB,,0.00000
IM9 5LD,,0.00000
IM9 5LE,,0.00000
IM9 5LF,,0.00000
IM9 5LG,,0.00000
IM9 5LH,,0.00000
IM9 5LJ,,0.00000
IM9 5LL,,0.00000
IM9 5LN,,0.00000
IM9 5LP,,0.00000
IM9 5LQ,,0.00000
IM9 5LR,,0.00000
IM9 5LS,,0.00000
IM9 5LT,,0.00000
IM9 5LU,,0.00000
IM9 5LW,,0.00000
IM9 5LX,,0.00000
IM9 5LY,,0.00000
IM9 5LZ,,0.00000
IM9 5NA,,0.00000
IM9 5NB,,0.00000
IM9 5ND,,0.00000
IM9 5NE,,0.00000
IM9 5NF,,0.00000
IM9 5NG,,0.00000
IM9 5NH,,0.00000
IM9 5NJ,,0.00000
IM9 5NL,,0.00000
IM9 5NN,,0.00000
IM9 5NP,,0.00000
IM9 5NQ,,0.00000
IM9 5NR,,0.00000
IM9 5NS,,0.00000
IM9 5NT,,0.00000
IM9 5PA,,0.00000
IM9 5PB,,0.00000
IM9 5PD,,0.00000
IM9 5PE,,0.00000
IM9 5PF,,0.00000
IM9 5PG,,0.00000
IM9 5PH,,0.00000
IM9 5PJ,,0.00000
IM9 5PL,,0.00000
IM9 5PN,,0.00000
IM9 5PP,,0.00000
IM9 5PQ,,0.00000
IM9 5PR,,0.00000
IM9 5PS,,0.00000
IM9 5PT,,0.00000
IM9 5PU,,0.00000
IM9 5PW,,0.00000
IM9 5PX,,0.00000
IM9 5PY,,0.00000
IM9 5PZ,,0.00000
IM9 5QA,,0.00000
IM9 5RB,,0.00000
IM9 6AA,,0.00000
IM9 6AB,,0.00000
IM9 6AD,,0.00000
IM9 6AE,,0.00000
IM9 6AF,,0.00000
IM9 6AG,,0.00000
IM9 6AH,,0.00000
IM9 6AJ,,0.00000
IM9 6AL,,0.00000
IM9 6AN,,0.00000
IM9 6AP,,0.00000
IM9 6AQ,,0.00000
IM9 6AR,,0.00000
IM9 6AS,,0.00000
IM9 6AT,,0.00000
IM9 6AU,,0.00000
IM9 6AW,,0.00000
IM9 6AX,,0.00000
IM9 6AY,,0.00000
IM9 6AZ,,0.00000
IM9 6BA,,0.00000
IM9 6BB,,0.00000
IM9 6BD,,0.00000
IM9 6BE,,0.00000
IM9 6BF,,0.00000
IM9 6BG,,0.00000
IM9 6BH,,0.00000
IM9 6BJ,,0.00000
IM9 6BL,,0.00000
IM9 6BN,,0.00000
IM9 6BP,,0.00000
IM9 6BQ,,0.00000
IM9 6BR,,0.00000
IM9 6BS,,0.00000
IM9 6BT,,0.00000
IM9 6BU,,0.00000
IM9 6BW,,0.00000
IM9 6BX,,0.00000
IM9 6BY,,0.00000
IM9 6BZ,,0.00000
IM9 6DA,,0.00000
IM9 6DB,,0.00000
IM9 6DD,,0.00000
IM9 6DE,,0.00000
IM9 6DF,,0.00000
IM9 6DG,,0.00000
IM9 6DH,,0.00000
IM9 6DJ,,0.00000
IM9 6DL,,0.00000
IM9 6DQ,,0.00000
IM9 6DR,,0.00000
IM9 6DT,,0.00000
IM9 6DU,,0.00000
IM9 6DW,,0.00000
IM9 6DX,,0.00000
IM9 6DZ,,0.00000
IM9 6EA,,0.00000
IM9 6EB,,0.00000
IM9 6ED,,0.00000
IM9 6EE,,0.00000
IM9 6EF,,0.00000
IM9 6EG,,0.00000
IM9 6EH,,0.00000
IM9 6EJ,,0.00000
IM9 6EL,,0.00000
IM9 6EN,,0.00000
IM9 6EP,,0.00000
IM9 6EQ,,0.00000
IM9 6ER,,0.00000
IM9 6ES,,0.00000
IM9 6ET,,0.00000
IM9 6EU,,0.00000
IM9 6EW,,0.00000
IM9 6EX,,0.00000
IM9 6EY,,0.00000
IM9 6EZ,,0.00000
IM9 6FA,,0.00000
IM9 6FB,,0.00000
IM9 6FD,,0.00000
IM9 6FE,,0.00000
IM9 6FF,,0.00000
IM9 6FG,,0.00000
IM9 6FH,,0.00000
IM9 6HA,,0.00000
IM9 6HB,,0.00000
IM9 6HD,,0.00000
IM9 6HE,,0.00000
IM9 6HF,,0.00000
IM9 6HG,,0.00000
IM9 6HH,,0.00000
IM9 6HJ,,0.00000
IM9 6HL,,0.00000
IM9 6HN,,0.00000
IM9 6HP,,0.00000
IM9 6HQ,,0.00000
IM9 6HR,,0.00000
IM9 6HS,,0.00000
IM9 6HT,,0.00000
IM9 6HW,,0.00000
IM9 6JA,,0.00000
IM9 6JB,,0.00000
IM9 6JD,,0.00000
IM9 6JF,,0.00000
IM9 6JG,,0.00000
IM9 6JH,,0.00000
IM9 6JJ,,0.00000
IM9 6JL,,0.00000
IM9 6JN,,0.00000
IM9 6JP,,0.00000
IM9 6JQ,,0.00000
IM9 6JR,,0.00000
IM9 6JW,,0.00000
IM9 6LA,,0.00000
IM9 6LB,,0.00000
IM9 6LD,,0.00000
IM9 6LE,,0.00000
IM9 6LF,,0.00000
IM9 6LG,,0.00000
IM9 6LH,,0.00000
IM9 6LJ,,0.00000
IM9 6LL,,0.00000
IM9 6LN,,0.00000
IM9 6LP,,0.00000
IM9 6LQ,,0.00000
IM9 6LR,,0.00000
IM9 6LS,,0.00000
IM9 6LT,,0.00000
IM9 6LU,,0.00000
IM9 6LW,,0.00000
IM9 6LX,,0.00000
IM9 6LY,,0.00000
IM9 6LZ,,0.00000
IM9 6NA,,0.00000
IM9 6NB,,0.00000
IM9 6ND,,0.00000
IM9 6NE,,0.00000
IM9 6NF,,0.00000
IM9 6NG,,0.00000
IM9 6NH,,0.00000
IM9 6NJ,,0.00000
IM9 6NL,,0.00000
IM9 6NP,,0.00000
IM9 6NQ,,0.00000
IM9 6NR,,0.00000
IM9 6PA,,0.00000
IM9 6PB,,0.00000
IM9 6PD,,0.00000
IM9 6PE,,0.00000
IM9 6PF,,0.00000
IM9 6PG,,0.00000
IM9 6PH,,0.00000
IM9 6PJ,,0.00000
IM9 6PL,,0.00000
IM9 6PN,,0.00000
IM9 6PP,,0.00000
IM9 6PQ,,0.00000
IM9 6PR,,0.00000
IM9 6PS,,0.00000
IM9 6PT,,0.00000
IM9 6PW,,0.00000
IM9 6QA,,0.00000
IM9 6QB,,0.00000
IM9 6QD,,0.00000
IM9 6QE,,0.00000
IM9 6QF,,0.00000
IM9 6QG,,0.00000
IM9 6QH,,0.00000
IM9 6QJ,,0.00000
IM9 6QL,,0.00000
IM9 6QN,,0.00000
IM9 6QP,,0.00000
IM9 6QQ,,0.00000
IM9 6QR,,0.00000
IM9 6QS,,0.00000
IM9 6QT,,0.00000
IM9 6QU,,0.00000
IM9 6QW,,0.00000
IM9 6QZ,,0.00000
IM9 6RA,,0.00000
IM9 6RG,,0.00000
IM9 6TA,,0.00000
IM9 6TB,,0.00000
IM9 6TD,,0.00000
IM9 6TE,,0.00000
IM9 6TF,,0.00000
IM9 6TG,,0.00000
IM9 6TH,,0.00000
IM9 6TJ,,0.00000
IM9 6TL,,0.00000
IM9 6TN,,0.00000
IM9 6TP,,0.00000
IM9 6TQ,,0.00000
IM9 6TR,,0.00000
IM9 6TS,,0.00000
IM9 6TT,,0.00000
IM9 6TU,,0.00000
IM9 6TW,,0.00000
IM9 6TX,,0.00000
IM991AA,,0.00000
IM991AB,,0.00000
IM991AD,,0.00000
IM991AE,,0.00000
IM991AF,,0.00000
IM991AG,,0.00000
IM991AH,,0.00000
IM991AJ,,0.00000
IM991AL,,0.00000
IM991AN,,0.00000
IM991AP,,0.00000
IM991AQ,,0.00000
IM991AR,,0.00000
IM991AS,,0.00000
IM991AT,,0.00000
IM991AU,,0.00000
IM991AW,,0.00000
IM991AX,,0.00000
IM991AY,,0.00000
IM991AZ,,0.00000
IM991BA,,0.00000
IM991BB,,0.00000
IM991BD,,0.00000
IM991BE,,0.00000
IM991BF,,0.00000
IM991BG,,0.00000
IM991BH,,0.00000
IM991BJ,,0.00000
IM991BL,,0.00000
IM991BN,,0.00000
IM991BP,,0.00000
IM991BQ,,0.00000
IM991BR,,0.00000
IM991BS,,0.00000
IM991BT,,0.00000
IM991BU,,0.00000
IM991BW,,0.00000
IM991BX,,0.00000
IM991BY,,0.00000
IM991BZ,,0.00000
IM991DA,,0.00000
IM991DB,,0.00000
IM991DD,,0.00000
IM991DE,,0.00000
IM991DF,,0.00000
IM991DG,,0.00000
IM991DH,,0.00000
IM991DJ,,0.00000
IM991DL,,0.00000
IM991DN,,0.00000
IM991DP,,0.00000
IM991DQ,,0.00000
IM991DR,,0.00000
IM991DS,,0.00000
IM991DT,,0.00000
IM991DU,,0.00000
IM991DW,,0.00000
IM991DX,,0.00000
IM991DY,,0.00000
IM991DZ,,0.00000
IM991EA,,0.00000
IM991EB,,0.00000
IM991ED,,0.00000
IM991EE,,0.00000
IM991EF,,0.00000
IM991EG,,0.00000
IM991EH,,0.00000
IM991EJ,,0.00000
IM991EL,,0.00000
IM991EN,,0.00000
IM991EP,,0.00000
IM991EQ,,0.00000
IM991ER,,0.00000
IM991ES,,0.00000
IM991ET,,0.00000
IM991EU,,0.00000
IM991EW,,0.00000
IM991EX,,0.00000
IM991EY,,0.00000
IM991EZ,,0.00000
IM991FA,,0.00000
IM991FB,,0.00000
IM991FD,,0.00000
IM991FE,,0.00000
IM991FF,,0.00000
IM991FG,,0.00000
IM991FH,,0.00000
IM991FJ,,0.00000
IM991FL,,0.00000
IM991FN,,0.00000
IM991FP,,0.00000
IM991FQ,,0.00000
IM991FR,,0.00000
IM991FS,,0.00000
IM991FT,,0.00000
IM991FW,,0.00000
IM991FX,,0.00000
IM991FY,,0.00000
IM991FZ,,0.00000
IM991GA,,0.00000
IM991GB,,0.00000
IM991GD,,0.00000
IM991GE,,0.00000
IM991GF,,0.00000
IM991GG,,0.00000
IM991GH,,0.00000
IM991GJ,,0.00000
IM991GL,,0.00000
IM991GN,,0.00000
IM991GP,,0.00000
IM991GQ,,0.00000
IM991GR,,0.00000
IM991GS,,0.00000
IM991GT,,0.00000
IM991GU,,0.00000
IM991GW,,0.00000
IM991GX,,0.00000
IM991GY,,0.00000
IM991GZ,,0.00000
IM991HA,,0.00000
IM991HB,,0.00000
IM991HD,,0.00000
IM991HE,,0.00000
IM991HF,,0.00000
IM991HG,,0.00000
IM991HH,,0.00000
IM991HJ,,0.00000
IM991HL,,0.00000
IM991HN,,0.00000
IM991HP,,0.00000
IM991HQ,,0.00000
IM991HR,,0.00000
IM991HS,,0.00000
IM991HT,,0.00000
IM991HU,,0.00000
IM991HW,,0.00000
IM991HX,,0.00000
IM991HY,,0.00000
IM991HZ,,0.00000
IM991JA,,0.00000
IM991JB,,0.00000
IM991JD,,0.00000
IM991JE,,0.00000
IM991JF,,0.00000
IM991JG,,0.00000
IM991JH,,0.00000
IM991JJ,,0.00000
IM991JL,,0.00000
IM991JN,,0.00000
IM991JP,,0.00000
IM991JQ,,0.00000
IM991JR,,0.00000
IM991JS,,0.00000
IM991JT,,0.00000
IM991JU,,0.00000
IM991JW,,0.00000
IM991JX,,0.00000
IM991JY,,0.00000
IM991JZ,,0.00000
IM991LA,,0.00000
IM991LB,,0.00000
IM991LD,,0.00000
IM991LE,,0.00000
IM991LF,,0.00000
IM991LG,,0.00000
IM991LH,,0.00000
IM991LJ,,0.00000
IM991LL,,0.00000
IM991LN,,0.00000
IM991LP,,0.00000
IM991LQ,,0.00000
IM991LR,,0.00000
IM991LS,,0.00000
IM991LT,,0.00000
IM991LU,,0.00000
IM991LW,,0.00000
IM991LX,,0.00000
IM991LY,,0.00000
IM991LZ,,0.00000
IM991NA,,0.00000
IM991NB,,0.00000
IM991ND,,0.00000
IM991NE,,0.00000
IM991NF,,0.00000
IM991NG,,0.00000
IM991NH,,0.00000
IM991NJ,,0.00000
IM991NL,,0.00000
IM991NN,,0.00000
IM991NP,,0.00000
IM991NQ,,0.00000
IM991NR,,0.00000
IM991NT,,0.00000
IM991NU,,0.00000
IM991NW,,0.00000
IM991NX,,0.00000
IM991NY,,0.00000
IM991NZ,,0.00000
IM991PA,,0.00000
IM991PB,,0.00000
IM991PD,,0.00000
IM991PE,,0.00000
IM991PF,,0.00000
IM991PG,,0.00000
IM991PH,,0.00000
IM991PJ,,0.00000
IM991PL,,0.00000
IM991PN,,0.00000
IM991PP,,0.00000
IM991PQ,,0.00000
IM991PR,,0.00000
IM991PS,,0.00000
IM991PT,,0.00000
IM991PU,,0.00000
IM991PW,,0.00000
IM991PX,,0.00000
IM991PY,,0.00000
IM991PZ,,0.00000
IM991QA,,0.00000
IM991QB,,0.00000
IM991QD,,0.00000
IM991QE,,0.00000
IM991QF,,0.00000
IM991QG,,0.00000
IM991QH,,0.00000
IM991QJ,,0.00000
IM991QL,,0.00000
IM991QN,,0.00000
IM991QP,,0.00000
IM991QS,,0.00000
IM991QT,,0.00000
IM991QU,,0.00000
IM991QW,,0.00000
IM991QX,,0.00000
IM991QY,,0.00000
IM991QZ,,0.00000
IM991RB,,0.00000
IM991RD,,0.00000
IM991RE,,0.00000
IM991RF,,0.00000
IM991RG,,0.00000
IM991RH,,0.00000
IM991RJ,,0.00000
IM991RL,,0.00000
IM991RN,,0.00000
IM991RP,,0.00000
IM991RQ,,0.00000
IM991RR,,0.00000
IM991RS,,0.00000
IM991RT,,0.00000
IM991RU,,0.00000
IM991RW,,0.00000
IM991RX,,0.00000
IM991RY,,0.00000
IM991RZ,,0.00000
IM991SB,,0.00000
IM991SD,,0.00000
IM991SE,,0.00000
IM991SF,,0.00000
IM991SG,,0.00000
IM991SH,,0.00000
IM991SJ,,0.00000
IM991SL,,0.00000
IM991SN,,0.00000
IM991SP,,0.00000
IM991SQ,,0.00000
IM991SR,,0.00000
IM991SS,,0.00000
IM991ST,,0.00000
IM991SU,,0.00000
IM991SW,,0.00000
IM991SX,,0.00000
IM991SY,,0.00000
IM991SZ,,0.00000
IM991TA,,0.00000
IM991TB,,0.00000
IM991TD,,0.00000
IM991TE,,0.00000
IM991TF,,0.00000
IM991TG,,0.00000
IM991TH,,0.00000
IM991TJ,,0.00000
IM991TL,,0.00000
IM991TN,,0.00000
IM991TP,,0.00000
IM991TQ,,0.00000
IM991TR,,0.00000
IM991TS,,0.00000
IM991TT,,0.00000
IM991TU,,0.00000
IM991TW,,0.00000
IM991TX,,0.00000
IM991TY,,0.00000
IM991TZ,,0.00000
IM991UA,,0.00000
IM991UD,,0.00000
IM991UE,,0.00000
IM991UF,,0.00000
IM991UG,,0.00000
IM991UH,,0.00000
IM991UL,,0.00000
IM991UN,,0.00000
IM991UP,,0.00000
IM991UQ,,0.00000
IM991UR,,0.00000
IM991US,,0.00000
IM991UT,,0.00000
IM991UU,,0.00000
IM991UW,,0.00000
IM991UX,,0.00000
IM991UY,,0.00000
IM991UZ,,0.00000
IM991WA,,0.00000
IM991WB,,0.00000
IM991WD,,0.00000
IM991WE,,0.00000
IM991WF,,0.00000
IM991WG,,0.00000
IM991WH,,0.00000
IM991WJ,,0.00000
IM991WL,,0.00000
IM991WN,,0.00000
IM991WP,,0.00000
IM991WQ,,0.00000
IM991WR,,0.00000
IM991WS,,0.00000
IM991WT,,0.00000
IM991WU,,0.00000
IM991WW,,0.00000
IM991WX,,0.00000
IM991WY,,0.00000
IM991WZ,,0.00000
IM991XA,,0.00000
IM991XB,,0.00000
IM991XD,,0.00000
IM991XE,,0.00000
IM991XF,,0.00000
IM991XG,,0.00000
IM991XH,,0.00000
IM991XJ,,0.00000
IM991XL,,0.00000
IM991XN,,0.00000
IM991XP,,0.00000
IM991XQ,,0.00000
IM991XR,,0.00000
IM991XS,,0.00000
IM991XT,,0.00000
IM991XU,,0.00000
IM991XW,,0.00000
IM991XX,,0.00000
IM991XY,,0.00000
IM991XZ,,0.00000
IM991YA,,0.00000
IM991YB,,0.00000
IM991YD,,0.00000
IM991YE,,0.00000
IM991YF,,0.00000
IM991YG,,0.00000
IM991YH,,0.00000
IM991YJ,,0.00000
IM991YL,,0.00000
IM991YN,,0.00000
IM991YP,,0.00000
IM991YQ,,0.00000
IM991YR,,0.00000
IM991YS,,0.00000
IM991YT,,0.00000
IM991YU,,0.00000
IM991YW,,0.00000
IM991YX,,0.00000
IM991YY,,0.00000
IM991YZ,,0.00000
IM991ZA,,0.00000
IM991ZB,,0.00000
IM991ZD,,0.00000
IM991ZE,,0.00000
IM991ZF,,0.00000
IM991ZG,,0.00000
IM991ZH,,0.00000
IM991ZJ,,0.00000
IM991ZL,,0.00000
IM991ZN,,0.00000
IM991ZP,,0.00000
IM991ZQ,,0.00000
IM991ZR,,0.00000
IM991ZS,,0.00000
IM991ZT,,0.00000
IM991ZU,,0.00000
IM991ZW,,0.00000
IM991ZX,,0.00000
IM991ZY,,0.00000
IM991ZZ,,0.00000
IM992AA,,0.00000
IM992AB,,0.00000
IM992AD,,0.00000
IM992AE,,0.00000
IM992AF,,0.00000
IM992AG,,0.00000
IM992AL,,0.00000
IM992AN,,0.00000
IM992AP,,0.00000
IM992AQ,,0.00000
IM992AR,,0.00000
IM992AT,,0.00000
IM992AW,,0.00000
IM992AX,,0.00000
IM992AY,,0.00000
IM992AZ,,0.00000
IM992BA,,0.00000
IM992BB,,0.00000
IM992BD,,0.00000
IM992BE,,0.00000
IM992BF,,0.00000
IM992BG,,0.00000
IM992BH,,0.00000
IM992BJ,,0.00000
IM992BL,,0.00000
IM992BN,,0.00000
IM992BP,,0.00000
IM992BQ,,0.00000
IM992BR,,0.00000
IM992BS,,0.00000
IM992BT,,0.00000
IM992BW,,0.00000
IM992BX,,0.00000
IM992BY,,0.00000
IM992BZ,,0.00000
IM992DA,,0.00000
IM992DB,,0.00000
IM992DD,,0.00000
IM992DE,,0.00000
IM992DF,,0.00000
IM992DG,,0.00000
IM992DH,,0.00000
IM992DJ,,0.00000
IM992DL,,0.00000
IM992DN,,0.00000
IM992DP,,0.00000
IM992DQ,,0.00000
IM992DR,,0.00000
IM992DS,,0.00000
IM992DT,,0.00000
IM992DU,,0.00000
IM992DW,,0.00000
IM992DX,,0.00000
IM992DY,,0.00000
IM992DZ,,0.00000
IM992EA,,0.00000
IM992EB,,0.00000
IM992ED,,0.00000
IM992EE,,0.00000
IM992EF,,0.00000
IM992EG,,0.00000
IM992EH,,0.00000
IM992EJ,,0.00000
IM992EL,,0.00000
IM992EN,,0.00000
IM992EP,,0.00000
IM992EQ,,0.00000
IM992ER,,0.00000
IM992ES,,0.00000
IM992ET,,0.00000
IM992EU,,0.00000
IM992EY,,0.00000
IM992EZ,,0.00000
IM992LA,,0.00000
IM992LB,,0.00000
IM992LD,,0.00000
IM992LE,,0.00000
IM992LF,,0.00000
IM992LG,,0.00000
IM992LH,,0.00000
IM992LJ,,0.00000
IM992LL,,0.00000
IM992LN,,0.00000
IM992LP,,0.00000
IM992LR,,0.00000
IM992LS,,0.00000
IM992LT,,0.00000
IM992LW,,0.00000
IM992LX,,0.00000
IM992LY,,0.00000
IM992LZ,,0.00000
IM992NA,,0.00000
IM992NB,,0.00000
IM992ND,,0.00000
IM992NE,,0.00000
IM992NF,,0.00000
IM992NG,,0.00000
IM992NH,,0.00000
IM992NJ,,0.00000
IM992NL,,0.00000
IM992NN,,0.00000
IM992NP,,0.00000
IM992NQ,,0.00000
IM992NR,,0.00000
IM992NS,,0.00000
IM992NT,,0.00000
IM992NU,,0.00000
IM992NW,,0.00000
IM992NX,,0.00000
IM992NY,,0.00000
IM992NZ,,0.00000
IM992PA,,0.00000
IM992PB,,0.00000
IM992PD,,0.00000
IM992PE,,0.00000
IM992PF,,0.00000
IM992PG,,0.00000
IM992PH,,0.00000
IM992PJ,,0.00000
IM992PL,,0.00000
IM992PN,,0.00000
IM992PP,,0.00000
IM992PQ,,0.00000
IM992PR,,0.00000
IM992PS,,0.00000
IM992PT,,0.00000
IM992PW,,0.00000
IM992PX,,0.00000
IM992PY,,0.00000
IM992PZ,,0.00000
IM992QA,,0.00000
IM992QB,,0.00000
IM992QD,,0.00000
IM992QE,,0.00000
IM992QF,,0.00000
IM992QG,,0.00000
IM992QH,,0.00000
IM992QJ,,0.00000
IM992QL,,0.00000
IM992QN,,0.00000
IM992QP,,0.00000
IM992QQ,,0.00000
IM992QR,,0.00000
IM992QS,,0.00000
IM992QT,,0.00000
IM992QU,,0.00000
IM992QW,,0.00000
IM992QX,,0.00000
IM992QY,,0.00000
IM992QZ,,0.00000
IM992RA,,0.00000
IM992RB,,0.00000
IM992RD,,0.00000
IM992RE,,0.00000
IM992RF,,0.00000
IM992RG,,0.00000
IM992RH,,0.00000
IM992RJ,,0.00000
IM992RL,,0.00000
IM992RN,,0.00000
IM992RP,,0.00000
IM992RQ,,0.00000
IM992RR,,0.00000
IM992RS,,0.00000
IM992RT,,0.00000
IM992RU,,0.00000
IM992RW,,0.00000
IM992RX,,0.00000
IM992RY,,0.00000
IM992RZ,,0.00000
IM992SA,,0.00000
IM992SB,,0.00000
IM992SD,,0.00000
IM992SE,,0.00000
IM992SF,,0.00000
IM992SG,,0.00000
IM992SH,,0.00000
IM992SJ,,0.00000
IM992SL,,0.00000
IM992SN,,0.00000
IM992SP,,0.00000
IM992SQ,,0.00000
IM992SR,,0.00000
IM992SS,,0.00000
IM992ST,,0.00000
IM992SU,,0.00000
IM992SW,,0.00000
IM992SX,,0.00000
IM992SY,,0.00000
IM992SZ,,0.00000
IM992TA,,0.00000
IM992TB,,0.00000
IM992TD,,0.00000
IM992TE,,0.00000
IM992TF,,0.00000
IM992TG,,0.00000
IM992TH,,0.00000
IM992TJ,,0.00000
IM992TL,,0.00000
IM992TN,,0.00000
IM992TP,,0.00000
IM992TQ,,0.00000
IM992TR,,0.00000
IM992TS,,0.00000
IM992TT,,0.00000
IM992TU,,0.00000
IM992TW,,0.00000
IM992TX,,0.00000
IM992TY,,0.00000
IM992TZ,,0.00000
IM992UA,,0.00000
IM992UB,,0.00000
IM992UD,,0.00000
IM992UE,,0.00000
IM992UF,,0.00000
IM992UG,,0.00000
IM992UH,,0.00000
IM992UJ,,0.00000
IM992UL,,0.00000
IM992UN,,0.00000
IM992UP,,0.00000
IM992UQ,,0.00000
IM992UR,,0.00000
IM992US,,0.00000
IM992UT,,0.00000
IM992UU,,0.00000
IM992UW,,0.00000
IM992UX,,0.00000
IM992UY,,0.00000
IM992UZ,,0.00000
IM992XA,,0.00000
IM992XB,,0.00000
IM992XD,,0.00000
IM992XE,,0.00000
IM992XG,,0.00000
IM992XH,,0.00000
IM992XJ,,0.00000
IM992XL,,0.00000
IM992XN,,0.00000
IM992XP,,0.00000
IM992XQ,,0.00000
IM992XR,,0.00000
IM992XS,,0.00000
IM992XT,,0.00000
IM992XU,,0.00000
IM992XW,,0.00000
IM992XX,,0.00000
IM992XY,,0.00000
IM992XZ,,0.00000
IM992YA,,0.00000
IM992YB,,0.00000
IM992YD,,0.00000
IM992YE,,0.00000
IM992YF,,0.00000
IM992YG,,0.00000
IM992YH,,0.00000
IM992YJ,,0.00000
IM992YL,,0.00000
IM992YN,,0.00000
IM992YP,,0.00000
IM992YR,,0.00000
IM992YS,,0.00000
IM992YU,,0.00000
IM992YW,,0.00000
IM992YX,,0.00000
IM992YY,,0.00000
IM992YZ,,0.00000
IM993AA,,0.00000
IM993AB,,0.00000
IM993AD,,0.00000
IM993AE,,0.00000
IM993AF,,0.00000
IM993AG,,0.00000
IM993AH,,0.00000
IM993AJ,,0.00000
IM993AL,,0.00000
IM993AN,,0.00000
IM993AP,,0.00000
IM993AQ,,0.00000
IM993AR,,0.00000
IM993AS,,0.00000
IM993AT,,0.00000
IM993AU,,0.00000
IM993AW,,0.00000
IM993AY,,0.00000
IM993AZ,,0.00000
IM993BA,,0.00000
IM993BB,,0.00000
IM993BD,,0.00000
IM993BE,,0.00000
IM993BF,,0.00000
IM993BG,,0.00000
IM993BH,,0.00000
IM993BJ,,0.00000
IM993BL,,0.00000
IM993BN,,0.00000
IM993BP,,0.00000
IM993BQ,,0.00000
IM993BR,,0.00000
IM993BS,,0.00000
IM993BT,,0.00000
IM993BU,,0.00000
IM993BW,,0.00000
IM993BX,,0.00000
IM993BY,,0.00000
IM993BZ,,0.00000
IM993DA,,0.00000
IM993DB,,0.00000
IM993DD,,0.00000
IM993DE,,0.00000
IM993DF,,0.00000
IM993DG,,0.00000
IM993DH,,0.00000
IM993DJ,,0.00000
IM993DL,,0.00000
IM993DN,,0.00000
IM993DP,,0.00000
IM993DQ,,0.00000
IM993DR,,0.00000
IM993DS,,0.00000
IM993DT,,0.00000
IM993DU,,0.00000
IM993DW,,0.00000
IM993DX,,0.00000
IM993DY,,0.00000
IM993DZ,,0.00000
IM993EA,,0.00000
IM993EB,,0.00000
IM993ED,,0.00000
IM993EE,,0.00000
IM993EF,,0.00000
IM993EG,,0.00000
IM993EH,,0.00000
IM993EJ,,0.00000
IM993EL,,0.00000
IM993EN,,0.00000
IM993EP,,0.00000
IM993EQ,,0.00000
IM993ER,,0.00000
IM993ES,,0.00000
IM993ET,,0.00000
IM993EU,,0.00000
IM993EW,,0.00000
IM993EX,,0.00000
IM993EY,,0.00000
IM993EZ,,0.00000
IM993HA,,0.00000
IM993HB,,0.00000
IM993HD,,0.00000
IM993HE,,0.00000
IM993HF,,0.00000
IM993HG,,0.00000
IM993HH,,0.00000
IM993HJ,,0.00000
IM993HL,,0.00000
IM993HN,,0.00000
IM993HP,,0.00000
IM993HQ,,0.00000
IM993HR,,0.00000
IM993HS,,0.00000
IM993HT,,0.00000
IM993HU,,0.00000
IM993HW,,0.00000
IM993HX,,0.00000
IM993HY,,0.00000
IM993HZ,,0.00000
IM993JA,,0.00000
IM993JB,,0.00000
IM993JD,,0.00000
IM993JE,,0.00000
IM993JF,,0.00000
IM993JG,,0.00000
IM993JH,,0.00000
IM993JJ,,0.00000
IM993JL,,0.00000
IM993JN,,0.00000
IM993JP,,0.00000
IM993JQ,,0.00000
IM993JR,,0.00000
IM993JS,,0.00000
IM993JT,,0.00000
IM993JU,,0.00000
IM993JW,,0.00000
IM993JX,,0.00000
IM993JY,,0.00000
IM993JZ,,0.00000
IM993LA,,0.00000
IM993LB,,0.00000
IM993LD,,0.00000
IM993LE,,0.00000
IM993LF,,0.00000
IM993LG,,0.00000
IM993LH,,0.00000
IM993LJ,,0.00000
IM993LL,,0.00000
IM993LN,,0.00000
IM993LP,,0.00000
IM993LQ,,0.00000
IM993LR,,0.00000
IM993LS,,0.00000
IM993LT,,0.00000
IM993LU,,0.00000
IM993LW,,0.00000
IM993LX,,0.00000
IM993LY,,0.00000
IM993LZ,,0.00000
IM993NA,,0.00000
IM993NB,,0.00000
IM993ND,,0.00000
IM993NE,,0.00000
IM993NF,,0.00000
IM993NG,,0.00000
IM993NH,,0.00000
IM993NJ,,0.00000
IM993NL,,0.00000
IM993NN,,0.00000
IM993NP,,0.00000
IM993NQ,,0.00000
IM993NR,,0.00000
IM993NS,,0.00000
IM993NT,,0.00000
IM993NU,,0.00000
IM993NW,,0.00000
IM993NX,,0.00000
IM993NY,,0.00000
IM993NZ,,0.00000
IM993PA,,0.00000
IM993PB,,0.00000
IM993PD,,0.00000
IM993PE,,0.00000
IM993PF,,0.00000
IM993PG,,0.00000
IM993PH,,0.00000
IM993PJ,,0.00000
IM993PL,,0.00000
IM993PN,,0.00000
IM993PP,,0.00000
IM993PQ,,0.00000
IM993PR,,0.00000
IM993PS,,0.00000
IM993PT,,0.00000
IM993PU,,0.00000
IM993PW,,0.00000
IM993PX,,0.00000
IM993PY,,0.00000
IM993PZ,,0.00000
IM993QA,,0.00000
IM993QD,,0.00000
IM993QE,,0.00000
IM993QF,,0.00000
IM993QG,,0.00000
IM993QH,,0.00000
IM993QJ,,0.00000
IM993QL,,0.00000
IM993QN,,0.00000
IM993QP,,0.00000
IM993QQ,,0.00000
IM993QR,,0.00000
IM993QS,,0.00000
IM993QT,,0.00000
IM993QU,,0.00000
IM993QW,,0.00000
IM993QX,,0.00000
IM993QY,,0.00000
IM993QZ,,0.00000
IM993RA,,0.00000
IM993RB,,0.00000
IM993RD,,0.00000
IM993RE,,0.00000
IM993RF,,0.00000
IM993RG,,0.00000
IM993RH,,0.00000
IM993RJ,,0.00000
IM993RL,,0.00000
IM993RN,,0.00000
IM993RP,,0.00000
IM993RQ,,0.00000
IM993RR,,0.00000
IM993RS,,0.00000
IM993RT,,0.00000
IM993RU,,0.00000
IM993RW,,0.00000
IM993RX,,0.00000
IM993RY,,0.00000
IM993RZ,,0.00000
IM993SA,,0.00000
IM993SB,,0.00000
IM993SD,,0.00000
IM993SE,,0.00000
IM993SF,,0.00000
IM993SG,,0.00000
IM993SH,,0.00000
IM993SJ,,0.00000
IM993SL,,0.00000
IM993SN,,0.00000
IM993SP,,0.00000
IM993SQ,,0.00000
IM993SR,,0.00000
IM993SS,,0.00000
IM993ST,,0.00000
IM993SU,,0.00000
IM993SW,,0.00000
IM993SX,,0.00000
IM993SY,,0.00000
IM993SZ,,0.00000
IM993TA,,0.00000
IM993TB,,0.00000
IM993TD,,0.00000
IM993TE,,0.00000
IM993TF,,0.00000
IM993TG,,0.00000
IM993TH,,0.00000
IM993TJ,,0.00000
IM993TL,,0.00000
IM993TN,,0.00000
IM993TP,,0.00000
IM993TQ,,0.00000
IM993TR,,0.00000
IM993TS,,0.00000
IM993TT,,0.00000
IM993TU,,0.00000
IM993TW,,0.00000
IM993TX,,0.00000
IM993TY,,0.00000
IM993TZ,,0.00000
IM993UA,,0.00000
IM993UB,,0.00000
IM993UD,,0.00000
IM993UE,,0.00000
IM993UF,,0.00000
IM993UG,,0.00000
IM993UH,,0.00000
IM993UJ,,0.00000
IM993UL,,0.00000
IM993UN,,0.00000
IM993UP,,0.00000
IM993UQ,,0.00000
IM993UR,,0.00000
IM993US,,0.00000
IM993UT,,0.00000
IM993UU,,0.00000
IM993UW,,0.00000
IM993UX,,0.00000
IM993UY,,0.00000
IM993UZ,,0.00000
IM993WA,,0.00000
IM993WB,,0.00000
IM993WD,,0.00000
IM993WE,,0.00000
IM993WF,,0.00000
IM993WG,,0.00000
IM993WH,,0.00000
IM993WJ,,0.00000
IM993WL,,0.00000
IM993WN,,0.00000
IM993WP,,0.00000
IM993WQ,,0.00000
IM993WR,,0.00000
IM993WS,,0.00000
IM993WT,,0.00000
IM993WU,,0.00000
IM993WX,,0.00000
IM993WY,,0.00000
IM993WZ,,0.00000
IM993XA,,0.00000
IM993XB,,0.00000
IM993XD,,0.00000
IM993XE,,0.00000
IM993XF,,0.00000
IM993XG,,0.00000
IM993XH,,0.00000
IM993XJ,,0.00000
IM993XL,,0.00000
IM993XN,,0.00000
IM993XP,,0.00000
IM993XQ,,0.00000
IM993XR,,0.00000
IM993XS,,0.00000
IM993XT,,0.00000
IM993XU,,0.00000
IM993XW,,0.00000
IM993XX,,0.00000
IM993XY,,0.00000
IM993XZ,,0.00000
IM993YA,,0.00000
IM993YB,,0.00000
IM993YD,,0.00000
IM993YE,,0.00000
IM993YF,,0.00000
IM993YG,,0.00000
IM993YH,,0.00000
IM993YJ,,0.00000
IM993YL,,0.00000
IM993YN,,0.00000
IM993YP,,0.00000
IM993YQ,,0.00000
IM993YR,,0.00000
IM993YS,,0.00000
IM993YT,,0.00000
IM993YU,,0.00000
IM993YW,,0.00000
IM993YX,,0.00000
IM993YY,,0.00000
IM993YZ,,0.00000
IM993ZA,,0.00000
IM993ZB,,0.00000
IM993ZD,,0.00000
IM993ZE,,0.00000
IM993ZF,,0.00000
IM993ZG,,0.00000
IM993ZH,,0.00000
IM993ZJ,,0.00000
IM993ZL,,0.00000
IM993ZN,,0.00000
IM993ZP,,0.00000
IM993ZR,,0.00000
IM993ZS,,0.00000
IM993ZT,,0.00000
IM993ZU,,0.00000
IM993ZX,,0.00000
IM993ZY,,0.00000
IM993ZZ,,0.00000
IM994AB,,0.00000
IM994AD,,0.00000
IM994AE,,0.00000
IM994AF,,0.00000
IM994AG,,0.00000
IM994AH,,0.00000
IM994AJ,,0.00000
IM994AL,,0.00000
IM994AN,,0.00000
IM994AP,,0.00000
IM994AQ,,0.00000
IM994AR,,0.00000
IM994AS,,0.00000
IM994AT,,0.00000
IM994AU,,0.00000
IM994AW,,0.00000
IM994AX,,0.00000
IM994AY,,0.00000
IM994AZ,,0.00000
IM994BA,,0.00000
IM994BB,,0.00000
IM994BD,,0.00000
IM994BE,,0.00000
IM994BG,,0.00000
IM994BH,,0.00000
IM994BJ,,0.00000
IM994BL,,0.00000
IM994BN,,0.00000
IM994BP,,0.00000
IM994BQ,,0.00000
IM994BR,,0.00000
IM994BS,,0.00000
IM994BT,,0.00000
IM994BU,,0.00000
IM994BW,,0.00000
IM994BX,,0.00000
IM994BY,,0.00000
IM994BZ,,0.00000
IM994DA,,0.00000
IM994DD,,0.00000
IM994DE,,0.00000
IM994DF,,0.00000
IM994DG,,0.00000
IM994DJ,,0.00000
IM994DL,,0.00000
IM994DN,,0.00000
IM994DP,,0.00000
IM994DQ,,0.00000
IM994DR,,0.00000
IM994DS,,0.00000
IM994DT,,0.00000
IM994DU,,0.00000
IM994DW,,0.00000
IM994DX,,0.00000
IM994DY,,0.00000
IM994ED,,0.00000
IM994EE,,0.00000
IM994EF,,0.00000
IM994EG,,0.00000
IM994EH,,0.00000
IM994EJ,,0.00000
IM994EL,,0.00000
IM994EN,,0.00000
IM994EP,,0.00000
IM994EQ,,0.00000
IM994ER,,0.00000
IM994ES,,0.00000
IM994ET,,0.00000
IM994EU,,0.00000
IM994EW,,0.00000
IM994EX,,0.00000
IM994EY,,0.00000
IM994EZ,,0.00000
IM994HA,,0.00000
IM994HB,,0.00000
IM994HD,,0.00000
IM994HE,,0.00000
IM994HF,,0.00000
IM994HG,,0.00000
IM994HH,,0.00000
IM994HJ,,0.00000
IM994HN,,0.00000
IM994HP,,0.00000
IM994HQ,,0.00000
IM994HR,,0.00000
IM994HS,,0.00000
IM994HT,,0.00000
IM994HW,,0.00000
IM994HX,,0.00000
IM994HY,,0.00000
IM994HZ,,0.00000
IM994JA,,0.00000
IM994JB,,0.00000
IM994JD,,0.00000
IM994JE,,0.00000
IM994JG,,0.00000
IM994JH,,0.00000
IM994JJ,,0.00000
IM994JL,,0.00000
IM994JN,,0.00000
IM994JP,,0.00000
IM994JQ,,0.00000
IM994JR,,0.00000
IM994JS,,0.00000
IM994JT,,0.00000
IM994JU,,0.00000
IM994JW,,0.00000
IM994JX,,0.00000
IM994JY,,0.00000
IM994JZ,,0.00000
IM994LA,,0.00000
IM994LB,,0.00000
IM994LD,,0.00000
IM994LE,,0.00000
IM994LF,,0.00000
IM994LG,,0.00000
IM994LH,,0.00000
IM994LJ,,0.00000
IM994LL,,0.00000
IM994LN,,0.00000
IM994LP,,0.00000
IM994LQ,,0.00000
IM994LR,,0.00000
IM994LS,,0.00000
IM994LT,,0.00000
IM994LU,,0.00000
IM994LW,,0.00000
IM994LX,,0.00000
IM994LY,,0.00000
IM994LZ,,0.00000
IM994NA,,0.00000
IM994NB,,0.00000
IM994ND,,0.00000
IM994NE,,0.00000
IM994NF,,0.00000
IM994NG,,0.00000
IM994NH,,0.00000
IM994NJ,,0.00000
IM994NL,,0.00000
IM994NN,,0.00000
IM994NP,,0.00000
IM994NQ,,0.00000
IM994NR,,0.00000
IM994NT,,0.00000
IM994NU,,0.00000
IM994NW,,0.00000
IM994NX,,0.00000
IM994NY,,0.00000
IM994NZ,,0.00000
IM994PA,,0.00000
IM994PB,,0.00000
IM994PD,,0.00000
IM994PE,,0.00000
IM994PF,,0.00000
IM994PG,,0.00000
IM994PH,,0.00000
IM994PJ,,0.00000
IM994PL,,0.00000
IM994PN,,0.00000
IM994PP,,0.00000
IM994PQ,,0.00000
IM994PR,,0.00000
IM994PS,,0.00000
IM994PT,,0.00000
IM994PU,,0.00000
IM994PW,,0.00000
IM994PX,,0.00000
IM994PY,,0.00000
IM994PZ,,0.00000
IM994QA,,0.00000
IM994QD,,0.00000
IM994QE,,0.00000
IM994QF,,0.00000
IM994QG,,0.00000
IM994QH,,0.00000
IM994QJ,,0.00000
IM994QL,,0.00000
IM994QN,,0.00000
IM994QP,,0.00000
IM994QQ,,0.00000
IM994QR,,0.00000
IM994QS,,0.00000
IM994QT,,0.00000
IM994QU,,0.00000
IM994QW,,0.00000
IM994QX,,0.00000
IM994QY,,0.00000
IM994QZ,,0.00000
IM994RA,,0.00000
IM994RB,,0.00000
IM994UQ,,0.00000
IM994WH,,0.00000
IM995AZ,,0.00000
IM995BF,,0.00000
IM995DA,,0.00000
IM995DB,,0.00000
IM995DD,,0.00000
IM995DE,,0.00000
IM995DF,,0.00000
IM995DG,,0.00000
IM995DH,,0.00000
IM995DL,,0.00000
IM995DQ,,0.00000
IM995HP,,0.00000
IM995TA,,0.00000
IM995TB,,0.00000
IM995TD,,0.00000
IM995TE,,0.00000
IM995TF,,0.00000
IM995TG,,0.00000
IM995TH,,0.00000
IM995TJ,,0.00000
IM995TL,,0.00000
IM995TN,,0.00000
IM995TP,,0.00000
IM995TQ,,0.00000
IM995TS,,0.00000
IM995TT,,0.00000
IM995TU,,0.00000
IM995TW,,0.00000
IM995TX,,0.00000
IM995TY,,0.00000
IM995TZ,,0.00000
IM995UA,,0.00000
IM995UB,,0.00000
IM995UD,,0.00000
IM995UE,,0.00000
IM995UF,,0.00000
IM995UG,,0.00000
IM995UH,,0.00000
IM995UJ,,0.00000
IM995UL,,0.00000
IM995UN,,0.00000
IM995UP,,0.00000
IM995UQ,,0.00000
IM995UR,,0.00000
IM995US,,0.00000
IM995UT,,0.00000
IM995UU,,0.00000
IM995UW,,0.00000
IM995UX,,0.00000
IM995UY,,0.00000
IM995UZ,,0.00000
IM995XA,,0.00000
IM995XB,,0.00000
IM995XD,,0.00000
IM995XE,,0.00000
IM995XF,,0.00000
IM995XG,,0.00000
IM995XH,,0.00000
IM995XJ,,0.00000
IM995XL,,0.00000
IM995XN,,0.00000
IM995XP,,0.00000
IM995XQ,,0.00000
IM995XR,,0.00000
IM995XT,,0.00000
IM995XU,,0.00000
IM995XW,,0.00000
IM995XX,,0.00000
IM995XY,,0.00000
IM995XZ,,0.00000
IM995YA,,0.00000
IM995YB,,0.00000
IM995YD,,0.00000
IM995YE,,0.00000
IM995YF,,0.00000
IM995YG,,0.00000
IM995YH,,0.00000
IM995YJ,,0.00000
IM995YL,,0.00000
IM995YN,,0.00000
IM995YP,,0.00000
IM995YQ,,0.00000
IM995YR,,0.00000
IM995YS,,0.00000
IM995YT,,0.00000
IM995YU,,0.00000
IM995YW,,0.00000
IM995YX,,0.00000
IM995YY,,0.00000
IM995YZ,,0.00000
IM996AB,,0.00000
IM996AD,,0.00000
IM996AE,,0.00000
IM996AG,,0.00000
IM996AH,,0.00000
IM996AJ,,0.00000
IM996AL,,0.00000
IM996AN,,0.00000
IM996AQ,,0.00000
IM996AS,,0.00000
IM996AT,,0.00000
IM996AU,,0.00000
IM996AX,,0.00000
IM996AY,,0.00000
IM996AZ,,0.00000
IM996BA,,0.00000
IM996BB,,0.00000
IM996BD,,0.00000
IM996BE,,0.00000
IM996BF,,0.00000
IM996BG,,0.00000
IM996BH,,0.00000
IM996BJ,,0.00000
IM996BL,,0.00000
IM996BN,,0.00000
IM996BP,,0.00000
IM996BQ,,0.00000
IM996BR,,0.00000
IM996BS,,0.00000
IM996BT,,0.00000
IM996BW,,0.00000
IM996BX,,0.00000
IM997PA,,0.00000
IM997PB,,0.00000
IM997PE,,0.00000
IM997PF,,0.00000
IM997PG,,0.00000
IM997PH,,0.00000
IM997PJ,,0.00000
IM997PL,,0.00000
IM997PN,,0.00000
IM997PP,,0.00000
IM997PQ,,0.00000
IM997PR,,0.00000
IM997PS,,0.00000
IM997PT,,0.00000
IM997PU,,0.00000
IM997PW,,0.00000
IM997PX,,0.00000
IM997PY,,0.00000
IM997PZ,,0.00000
IM997QA,,0.00000
IM997QB,,0.00000
IM997QD,,0.00000
IM997QE,,0.00000
IM997QF,,0.00000
IM997QH,,0.00000
IM997QJ,,0.00000
IM997QL,,0.00000
IM997QN,,0.00000
IM997QP,,0.00000
IM997QQ,,0.00000
IM997QR,,0.00000
IM997QS,,0.00000
IM997QT,,0.00000
IM997QU,,0.00000
IM997QW,,0.00000
IM997QX,,0.00000
IM997QY,,0.00000
IM997QZ,,0.00000
IM997RA,,0.00000
IM997RS,,0.00000
IM997RT,,0.00000
IM997SU,,0.00000
IM997SX,,0.00000
IM997SY,,0.00000
IM997SZ,,0.00000
IM998HA,,0.00000
IM998HB,,0.00000
IM998HD,,0.00000
IM998HE,,0.00000
IM998HF,,0.00000
IM998HH,,0.00000
IM998HJ,,0.00000
IM998HL,,0.00000
IM998HN,,0.00000
IM998HQ,,0.00000
IM998HR,,0.00000
IM998HS,,0.00000
IM998HT,,0.00000
IM998HX,,0.00000
IM998HY,,0.00000
IM998HZ,,0.00000
IM998JA,,0.00000
IM998JB,,0.00000
IM998JD,,0.00000
IM998JE,,0.00000
IM998JF,,0.00000
IM998JG,,0.00000
IM998JQ,,0.00000
IM998NZ,,0.00000
IM999XA,,0.00000
IM999XB,,0.00000
IM999XD,,0.00000
IM999XE,,0.00000
IM999XF,,0.00000
IM999XG,,0.00000
IM999XH,,0.00000
IM999XJ,,0.00000
IM999XL,,0.00000
IM999XN,,0.00000
IM999XP,,0.00000
IM999XQ,,0.00000
IM999XR,,0.00000
IM999XS,,0.00000
IM999XT,,0.00000
IM999XU,,0.00000
IM999XW,,0.00000
IM999XX,,0.00000
IM999XY,,0.00000
IM999XZ,,0.00000
IM999YA,,0.00000
IM999YB,,0.00000
IM999YD,,0.00000
IM999YE,,0.00000
IM999YF,,0.00000
IM999YG,,0.00000
IM999YH,,0.00000
IM999YQ,,0.00000
